"Code","Name","Address","zip","Phone","Url","reservations y/n","order online y/n","Buy Tickets y/n","discnt coupon y/n","Maps y/n","verified"
"103","4 Seasons Racquet & Country Club","251 Racquet & Country Club Dr",65049,(573) 541-4905,"www.racquetandcountryclub.com/","n","n","n","n","n","n"
"105","4 Seasons Racquet & Country Club","251 Racquet & Country Club Dr",65049,(573) 541-4905,"www.racquetandcountryclub.com/","n","n","n","n","n","n"
"110","4 Seasons Racquet & Country Club","251 Racquet & Country Club Dr",65049,(573) 541-4905,"www.racquetandcountryclub.com/","n","n","n","n","n","n"
"612","5-65 Marina","671 Marina Rd",65020,(573) 873-5333,,"n","n","n","n","n","n"
"105","A & J Motel","814 W US Highway 54",65020,(573) 346-5777,,"n","n","n","n","n","n"
"612","Adventure Boat Rentals","30703 Rustic Rd",65072,(573) 964-1999,"www.adventureboatrentals.com","n","n","n","n","n","n"
"710","Adventure Boat Rentals","30703 Rustic Rd",65072,(573) 964-1999,"www.adventureboatrentals.com","n","n","n","n","n","n"
"802","Air Lake Aviation","957 Airport Rd",65065,(573) 348-1008,"www.airlakeaviation.com/index.html","n","n","n","n","n","n"
"203","Alberdini's Pizzaria","8758 N Mo-5",65020,(573) 873-0111,,"n","n","n","n","n","n"
"203 ","Alhonna Bobbers Restaurant","677 Outer Dr",65049,(573) 365-2634,"www.alhonna.com/","n","n","n","n","n","n"
"105","Alhonna Resort & Marina","665 Outer Dr",65049,(573) 365-2634,"www.alhonna.com/","n","n","n","n","n","n"
"110","Alhonna Resort & Marina","665 Outer Dr",65049,(573) 365-2634,"www.alhonna.com/","n","n","n","n","n","n"
"612","Alhonna Resort & Marina","665 Outer Dr",65049,(573) 365-2634,"www.alhonna.com/","n","n","n","n","n","n"
"710","Alhonna Resort & Marina","665 Outer Dr",65049,(573) 365-2634,"www.alhonna.com/","n","n","n","n","n","n"
"203","Alley Cats Pizzeria & Pub","1255 Bagnell Dam Blvd",65049,(573) 964-5559,,"n","n","n","n","n","n"
"301","Alley Cats Pizzeria & Pub","1255 Bagnell Dam Blvd",65049,(573) 964-5559,,"n","n","n","n","n","n"
"710","Aloha Boat Rentals","21 McDonald Dr",65079,(573) 374-1350,,"n","n","n","n","n","n"
"710","Aloha Waverunner Rentals","847 Red Oak Ln",65079,(573) 374-5442,,"n","n","n","n","n","n"
"107","American Legion Campground","38 Legion Rd",65049,(573) 365-5118,,"n","n","n","n","n","n"
"203","Ancel & Eddy's Pizza","383 Highway P",65026,(573) 365-9122,,"n","n","n","n","n","n"
"107","Anchor Marine & Camping","10 Restful Lane",65049,(573) 365-2654,,"n","n","n","n","n","n"
"612","Anchor Marine & Camping","10 Restful Lane",65049,(573) 365-2654,,"n","n","n","n","n","n"
"202","Andre's At the Lake","1622 Horseshoe Bend Pkwy",65049,(573) 365-2800,"www.andreslakeoz.com","n","n","n","n","n","n"
"203","Andy's Hickory Pit Barbeque","105 Bunker Rd",65026,(573) 392-4099,,"n","n","n","n","n","n"
"203","Angie's Dairy Queen","717 E Jefferson Ave",65556,(573) 765-3263,,"n","n","n","n","n","n"
"203","Applebee's Neighborhood Grill","4040 Highway 54",65065,(573) 348-9595,,"n","n","n","n","n","n"
"612","Aqua Moon Marina and Boat Works Inc","17 Aschoff Rd",65026,(573) 365-0781,,"n","n","n","n","n","n"
"110","Aqua-Fin Resort","1190 Bittersweet Rd",65049,(573) 365-2605,,"n","n","n","n","n","n"
"203","Arris Pizza & Pub","3924 Jr Prewitt Pkwy",65065,(573) 348-2288,,"n","n","n","n","n","n"
"301","Arris Pizza & Pub","3924 Jr Prewitt Pkwy",65065,(573) 348-2288,,"n","n","n","n","n","n"
"203","Asian Cuisine","5203 Highway 54",65065,(573) 302-0088,,"n","n","n","n","n","n"
"203","B & B Drive-In","612 W Newton St",65084,(573) 378-6470,,"n","n","n","n","n","n"
"203","B & P Hickory Pit","314 State Road F",65079,(573) 374-4545,"http://www.bandphickorypit.com/","n","n","n","n","n","n"
"301","B & P Hickory Pit","314 State Road F",65079,(573) 374-4545,"http://www.bandphickorypit.com/","n","n","n","n","n","n"
"203","Backwater Jacks Bar & Grill","4341 Beach Dr",65065,(573) 348-6639,"http://www.bwjacks.com/","n","n","n","n","n","n"
"301","Backwater Jacks Bar & Grill","4341 Beach Dr",65065,(573) 348-6639,"http://www.bwjacks.com/","n","n","n","n","n","n"
"203","Bait & Bagel Marina","39 Knox Rd",65072,(573) 964-0510,"www.baitandbagel.com/","n","n","n","n","n","n"
"301","Bait & Bagel Marina","39 Knox Rd",65072,(573) 964-0510,"http://www.baitandbagel.com/","n","n","n","n","n","n"
"612","Bait & Bagel Marina","39 Knox Rd",65072,(573) 964-0510,"http://www.baitandbagel.com/","n","n","n","n","n","n"
"710","Bait & Bagel Marina","39 Knox Rd",65072,(573) 964-0510,"http://www.baitandbagel.com/","n","n","n","n","n","n"
"203","Bambooze Bar & Grill","30 Oasis Cir",65079,(573) 374-4790,,"n","n","n","n","n","n"
"301","Bambooze Bar & Grill","30 Oasis Cir",65079,(573) 374-4790,,"n","n","n","n","n","n"
"203","Bandana's Bar-B-Q","4315 Highway 54",65065,(573) 302-4500,,"n","n","n","n","n","n"
"612","Barnes Marine Service","415 Highway 42",65047,(573) 348-3441,,"n","n","n","n","n","n"
"102","Bass & Baskets Bed & Breakfast","1117 Dogwood Rd",65049,(573) 964-5028,"www.bassandbaskets.com/","n","n","n","n","n","n"
"103","Bass Point Resort","33510 Bass Point Rd",65037,(573) 374-5205,"www.basspoint.com/","n","n","n","n","n","n"
"110","Bass Point Resort","33510 Bass Point Rd",65037,(573) 374-5205,"http://www.basspoint.com/","n","n","n","n","n","n"
"203","Baxter's Lakeside Grill","2124 Bagnell Bad Blvd",65049,(573) 365-2669,,"n","n","n","n","n","n"
"110","Bay Ridge Resort","141 Bay Ridge Rd",65079,(573) 374-5320,,"n","n","n","n","n","n"
"103","Bay Ridge Resort","141 Bay Ridge Rd",65079,(573) 374-5320,,"n","n","n","n","n","n"
"607","Bay View Golf Course","364 Sylvan Bay Dr",65052,(573) 346-6617,,"n","n","n","n","n","n"
"105","Baymont Inn","3501 Bagnell Dam Blvd",65049,(573) 365-2700,"www.baymontinns.com/Baymont/control/home","n","n","n","n","n","n"
"110","Baymont Inn","3501 Bagnell Dam Blvd",65049,(573) 365-2700,"http://www.baymontinns.com/Baymont/control/home","n","n","n","n","n","n"
"611","Baywatch Parasail","5020 W Hwy 54",65049,(573) 365-9595,,"n","n","n","n","n","n"
"110","Beachcomber Resort","300 Thornsberry Rd",65049,(573) 365-2359,,"n","n","n","n","n","n"
"110","Beachwoods Resort & Marina","29626 Coffman Beach Rd",65072,(573) 365-0320,,"n","n","n","n","n","n"
"612","Beachwoods Resort & Marina","29626 Coffman Beach Rd",65072,(573) 365-0320,,"n","n","n","n","n","n"
"203","Bear Creek Valley","910 E Highway 42",65065,(573) 302-1000,"http://bearcreekvalley.com/","n","n","n","n","n","n"
"301","Bear Creek Valley","910 E Highway 42",65065,(573) 302-1000,"http://bearcreekvalley.com/","n","n","n","n","n","n"
"607","Bear Creek Valley","910 E Highway 42",65065,(573) 302-1000,"http://bearcreekvalley.com/","n","n","n","n","n","n"
"609","Bear Creek Valley","910 E Highway 42",65065,(573) 302-1000,"http://bearcreekvalley.com/","n","n","n","n","n","n"
"110","Bed & Biscuit Resort","435 Highway W",65049,(573) 365-7807,,"n","n","n","n","n","n"
"203","Bentley's Restaurant","3100 Bagnell Dam Blvd",65049,(573) 365-5301,"www.bentleysrestaurantmo.com","n","n","n","n","n","n"
"612","Bergers Marina","159 Hidden Acres Ct",65049,(573) 365-2337,,"n","n","n","n","n","n"
"105","Best Western Dogwood Hills Resort Inn","1252 State Highway KK",65065,(877) 574-2464,"www.bestwestern.com","n","n","n","n","n","n"
"103","Big Bear Resort","133 Polar Bear Cir",65049,(573) 365-2115,,"n","n","n","n","n","n"
"105","Big Bear Resort","133 Polar Bear Cir",65049,(573) 365-2115,,"n","n","n","n","n","n"
"110","Big Bear Resort","133 Polar Bear Cir",65049,(573) 365-2115,,"n","n","n","n","n","n"
"105","Big Dick's Halfway Inn","1038 Cup Tree Rd",65037,(573) 374-1919,"www.bigdickshalfwayinn.com","n","n","n","n","n","n"
"110","Big Dick's Halfway Inn","1038 Cup Tree Rd",65037,(573) 374-1919,"www.bigdickshalfwayinn.com","n","n","n","n","n","n"
"203","Big Dick's Halfway Inn","1038 Cup Tree Rd",65037,(573) 374-1919,"www.bigdickshalfwayinn.com","n","n","n","n","n","n"
"301","Big Dick's Halfway Inn","1038 Cup Tree Rd",65037,(573) 374-1919,"www.bigdickshalfwayinn.com","n","n","n","n","n","n"
"203","Big E Smalls Pizza","247 S Main St",65037,(573) 374-2443,,"n","n","n","n","n","n"
"402","Big Shot Family Action Park","954 State Road A",65052,(573) 346-6111,,"n","n","n","n","n","n"
"405","Big Surf Waterpark","954 State Road A",65052,(573) 346-6111,"http://bigsurfwaterpark.com/","n","n","n","n","n","n"
"612","Bikini Pier","346 Lakeview Resort Blvd",65079,(573) 374-4890,,"n","n","n","n","n","n"
"710","Bikini Pier at Lakeview Resort","346 Lakeview Resort Blvd",65079,(573) 374-4890,,"n","n","n","n","n","n"
"203","Bill Harpers BBQ Express","601 E Highway 54",65020,(573) 346-1011,,"n","n","n","n","n","n"
"203","Black Bear Lodge Restaurant at Tan-Tar-a","State Route Kk",65065,(573) 348-3131,"http://www.tan-tar-a.com/","n","n","n","n","n","n"
"203","Black Canyon Ale & House","25992 Highway T",65078,(573) 377-4269,,"n","n","n","n","n","n"
"301","Black Canyon Ale & House","25992 Highway T",65078,(573) 377-4269,,"n","n","n","n","n","n"
"102","Blackhawk Inn","25 Blackhawk Estates",65049,(573) 480-6597,"www.blackhawkinn.com/","n","n","n","n","n","n"
"612","Blue Anchor Marina","31634 Millstone Est",65037,(573) 372-6766,,"n","n","n","n","n","n"
"203","Blue Heron","180 Blue Heron Hill Ln",65049,(573) 365-4646,,"n","n","n","n","n","n"
"103","Blue Heron Lodge","1104 Buckridge Rd",65324,(573) 345-0105,"www.blueheronlodgellc.com/","n","n","n","n","n","n"
"612","Blue Moon Marina","5395 Spruce",65065,(573) 348-3178,"http://www.bluemoonmarina.com/","n","n","n","n","n","n"
"710","Blue Moon Marina","5395 Spruce",65065,(573) 348-3178,"http://www.bluemoonmarina.com/","n","n","n","n","n","n"
"203","Boardwalk Grill","401 N Main St",65037,(573) 374-2002,,"n","n","n","n","n","n"
"612","Boat Docs Svc Ctr","221 Forever Dr",65020,(573) 873-3383,,"n","n","n","n","n","n"
"203","Bob Evan's Restaurant","4325 Highway 54",65065,(573) 302-0308,,"n","n","n","n","n","n"
"202","Bobbers","677 Outer Drive",65049,(573) 365-2634,"http://www.alhonna.com/bobbers.htm","n","n","n","n","n","n"
"203","Bobbino's Pizza","14435 N State Highway 7",65324,(573) 347-2308,,"n","n","n","n","n","n"
"203","Bogey's Sports Bar & Restaurant","14005 Redfield Dr",65032,(573) 498-0147,,"n","n","n","n","n","n"
"301","Bogey's Sports Bar & Restaurant","14005 Redfield Dr",65032,(573) 498-0147,,"n","n","n","n","n","n"
"110","Bonaire Resort","732 Bonaire Rd",65020,(573) 346-5248,,"n","n","n","n","n","n"
"203","Bourbon Street Grille at Country Club Hotel","250 Racquet Club Drive",65049,(573) 964-2200,"http://www.countryclubhotel.com/dining.php","n","n","n","n","n","n"
"203","Brass Door Restaurant & Lounge","5167 Hwy 54",65065,(573) 348-9229,"http://www.lakeoftheozarksbars.com/BrassDr.htm","n","n","n","n","n","n"
"301","Brass Door Restaurant & Lounge","5167 Hwy 54",65065,(573) 348-9229,"http://www.lakeoftheozarksbars.com/BrassDr.htm","n","n","n","n","n","n"
"301","Breezes at the Lodge of Four Seasons","315 Four Seasons Dr",65049,(573) 365-3000,"http://4seasonsresort.com/","n","n","n","n","n","n"
"103","Breezy Point Resort","211 Breezy Point Dr",65065,(573) 873-5173,"http://breezypointresortozarks.com/","n","n","n","n","n","n"
"110","Breezy Point Resort","211 Breezy Point Dr",65065,(573) 873-5173,"http://breezypointresortozarks.com/","n","n","n","n","n","n"
"203","Bricks Boat House Restaurant","107 Village Marina Rd",65026,(573) 365-1674,,"n","n","n","n","n","n"
"301","Bricks Boat House Restaurant","107 Village Marina Rd",65026,(573) 365-1674,,"n","n","n","n","n","n"
"601","Bridal Cave/Thunder Mountain Park","526 Bridal Cave Rd",65020,(573) 346-2676,"http://www.bridalcave.com/","n","n","n","n","n","n"
"612","Bridgeport Boat Rentals Inc","5020 Highway 54",65065,(573) 348-2280,"http://bridgeportjetski.com/","n","n","n","n","n","n"
"710","Bridgeport Boat Rentals Inc","5020 Highway 54",65065,(573) 348-2280,"http://bridgeportjetski.com/","n","n","n","n","n","n"
"612","Bridgeview Marina","873 Crow Ln",65065,(573) 302-1360,,"n","n","n","n","n","n"
"110","Bridgeview Resort","873 Crow Ln",65065,(573) 302-1360,,"n","n","n","n","n","n"
"103","Brigantine Holiday Apartments","280 Brownstone Dr",65079,(573) 374-6284,,"n","n","n","n","n","n"
"102","Buck Creek Bed & Breakfast","32907 Buck Creek Acres Rd",65037,(573) 372-1212,"www.buckcreekbb.com/","n","n","n","n","n","n"
"107","Bull Run Bluff Camp Grounds","17 Bull Run Bluff Cir",65020,(573) 346-7815,,"n","n","n","n","n","n"
"203","Bulldog's Beach House","121 Teton Ln.",65020,(573) 873-3311,,"n","n","n","n","n","n"
"301","Bulldog's Beach House","121 Teton Ln.",65020,(573) 873-3311,,"n","n","n","n","n","n"
"203","Burger King","4169 Highway 54",65065,(573) 302-1489,,"n","n","n","n","n","n"
"203","Buzzer's McGee's","108 S Maple St",65026,(573) 392-8811,,"n","n","n","n","n","n"
"203","C J's Family Restaurant","275 W Highway 54",65020,(573) 346-6133,,"n","n","n","n","n","n"
"203","Cactus Rose","113 N Main St",65037,(573) 374-4900,,"n","n","n","n","n","n"
"105","Camdenton Inn","113 E US Highway 54",65020,(573) 346-2256,,"n","n","n","n","n","n"
"713 ","Camdenton Memorial Airport","20 Airport Dr",65020,(573) 346-0300,,"n","n","n","n","n","n"
"301","Camp Bagnell Fish & Steak","401 Old Bagnell Rd",65026,(573) 365-1000,"http://campbagnell.com/","n","n","n","n","n","n"
"203","Camp Bagnell Fish & Steak","401 Old Bagnell Rd",65026,(573) 365-1000,"http://campbagnell.com/","n","n","n","n","n","n"
"710","Captain Bob's Boat Rental","1233 Jeffries Rd",65065,(573) 365-7000,"http://www.lakeozarkboatrental.com/","n","n","n","n","n","n"
"801","Captain Bob's Boat Rental","1233 Jeffries Rd",65065,(573) 365-7000,"http://www.lakeozarkboatrental.com/","n","n","n","n","n","n"
"804","Captain D Charters","105 Den Cove Ln",65049,(573) 216-8141,"http://captain-d-charters.com/","n","n","n","n","n","n"
"801","Captain D Charters","105 Den Cove Ln",65049,(573) 216-8141,"http://captain-d-charters.com/","n","n","n","n","n","n"
"611","Captain Hook's Parasailing","3620 Highway 54",65065,(573) 365-6675,,"n","n","n","n","n","n"
"203","Captain Ron's Bar & Grill","82 Aloha Ln",65079,(573) 374-5852,"www.captainronsatthelake.com","n","n","n","n","n","n"
"301","Captain Ron's Bar & Grill","82 Aloha Ln",65079,(573) 374-5852,"www.captainronsatthelake.com","n","n","n","n","n","n"
"203","Captain's Galley Restaurant","364 Galley Rd",65020,(573) 873-5227,"http://www.captgalley.com/","n","n","n","n","n","n"
"203","Cardinal Cove","621 Central Ozarks Rd",65326,(573) 345-3372,,"n","n","n","n","n","n"
"203","Casa De Loco","442 Riverbird Ln",65020,(573) 317-9696,,"n","n","n","n","n","n"
"105","Casa de Loco Winery","16952 N State Hwy 5",65079,(573) 317-9695,"www.casadelocowinery.com/","n","n","n","n","n","n"
"302","Casa de Loco Winery","16952 N State Hwy 5",65079,(573) 317-9695,"http://www.casadelocowinery.com/","n","n","n","n","n","n"
"203","Casablanca","1312 Bagnell Dam Blvd",65049,(573) 964-5224,,"n","n","n","n","n","n"
"110","Castaway's","228 Castaway Ln",65079,(573) 374-5304,,"n","n","n","n","n","n"
"102","Castleview Bed & Breakfast","3395 State Road D",65065,(573) 346-9818,"www.castleviewbedandbreakfast.com/","n","n","n","n","n","n"
"107","Cat Rock Resort","76 Cat Rock Rd",65026,(573) 365-1310,,"n","n","n","n","n","n"
"110","Cat Rock Resort","76 Cat Rock Rd",65026,(573) 365-1310,,"n","n","n","n","n","n"
"110","Cedar Acres Resort","Route F",65079,(573) 374-5477,,"n","n","n","n","n","n"
"103","Cedar Road Lodge","648 Cedar Road",65049,(816) 918-7774,,"n","n","n","n","n","n"
"801","Celebration Cruises","1150 Lakeshore Dr",65065,(573) 480-3212,"http://celebrationlakeozark.com/","n","n","n","n","n","n"
"804","Celebration Cruises","1150 Lakeshore Dr",65065,(573) 480-3212,"http://celebrationlakeozark.com/","n","n","n","n","n","n"
"203","Celebration Cruises","1150 Lakeshore Dr",65065,(573) 480-3212,"http://celebrationlakeozark.com/","n","n","n","n","n","n"
"203","Chances R","310 S Main St",65037,(573) 374-8770,,"n","n","n","n","n","n"
"203 ","Cheese Steak Jeddy's","4540 Highway 54",65065,(573) 302-7585,,"n","n","n","n","n","n"
"203","Chevy's Bar & Grill","5151 Highway 54",65065,(573) 302-0027,,"n","n","n","n","n","n"
"301","Chevy's Bar & Grill","5151 Highway 54",65065,(573) 302-0027,,"n","n","n","n","n","n"
"203","Chicago Brother's Pizza & Pub","1030 Highway KK",65065,(573) 348-2800,"http://www.lakeoftheozarksbars.com/chibro.htm","n","n","n","n","n","n"
"301","Chicago Brother's Pizza & Pub","1030 Highway KK",65065,(573) 348-2800,"http://www.lakeoftheozarksbars.com/chibro.htm","n","n","n","n","n","n"
"203","Chili's Bar & Grill","3820 Highway 54",65065,(573) 348-1116,,"n","n","n","n","n","n"
"301","Chili's Bar & Grill","3820 Highway 54",65065,(573) 348-1116,,"n","n","n","n","n","n"
"110","Chimney Rock Resort","241 Chimney Rock Rd",65020,(573) 873-5130,,"n","n","n","n","n","n"
"203","China Buffet","112 E Jasper St",65084,(573) 378-9982,,"n","n","n","n","n","n"
"203","China Town Chinese Restaurant","465 W Highway 54",65020,(573) 346-4962,,"n","n","n","n","n","n"
"616","Circle R Stables","492 Moongate Dr",65065,(573) 348-8624,,"n","n","n","n","n","n"
"203","City Grill","5384 Highway 54",65065,(573) 302-0848,"http://www.lakeoftheozarksbars.com/CityGrill.htm","n","n","n","n","n","n"
"301","City Grill","5384 Highway 54",65065,(573) 302-0848,"http://www.lakeoftheozarksbars.com/CityGrill.htm","n","n","n","n","n","n"
"203","City Zoo","70 E Highway H",65567,(417) 286-4500,,"n","n","n","n","n","n"
"203","Classiz Pizza","70 E State Road H ",65567,(417) 286-3382,,"n","n","n","n","n","n"
"102","Cliff House Inn","2183 Carlson Ct",65065,(573) 348-9726,"www.lakecliffhouse.com/","n","n","n","n","n","n"
"203","Climax Café","14502 N State Highway 7",65324,(573) 347-2822,,"n","n","n","n","n","n"
"110","Clover Leaf Bay Resort","1 Shawnee Bend Rd",65079,(573) 374-1038,,"n","n","n","n","n","n"
"203","Clown & Poop Deck","4877 Highway 54",65065,(573) 348-2259,,"n","n","n","n","n","n"
"607","Club at Old Kinderhook","20 Eagle Ridge Rd",65020,(573) 346-4444,,"n","n","n","n","n","n"
"607","Club at Porto Cima","133 Club House Dr",65079,(573) 964-3100,,"n","n","n","n","n","n"
"301","Club Mix","2107 Bagnell Dam Blvd",65049,(573) 365-9793,"http://www.lakeoftheozarksbars.com/ClubMix.htm","n","n","n","n","n","n"
"301","Coconuts Caribbean Beach Bar","15208 Red Hollow Rd",65037,(573) 372-6500,"http://www.coconutsatthelake.com/","n","n","n","n","n","n"
"612","Coffman Marina Inc","632 Quicksilver Dr",65324,(573) 345-3895,,"n","n","n","n","n","n"
"202","Cold Stone Creamery","4540 Hwy 54 Suite A-1",65065,(573) 348-6262,,"n","n","n","n","n","n"
"105 ","Comfort Inn","5885 Highway 54",65065,(573) 348-9555,"http://www.comfortinn.com/ires/en-US/html/HotelInfo?hotel=MO606","n","n","n","n","n","n"
"110","Comfort Inn","5885 Highway 54",65065,(573) 348-9555,"http://www.comfortinn.com/ires/en-US/html/HotelInfo?hotel=MO606","n","n","n","n","n","n"
"203","Construction Site Bar & Grill","473 Highway M",65026,(573) 365-1505,,"n","n","n","n","n","n"
"301","Construction Site Bar & Grill","473 Highway M",65026,(573) 365-1505,,"n","n","n","n","n","n"
"203","Corner House Family Restaurant","408 Business 54",65026,(573) 392-4270,,"n","n","n","n","n","n"
"103","Country Club Hotel & Spa","301 Carol Rd",65049,(573) 964-2200,"www.countryclubhotel.com/","n","n","n","n","n","n"
"105","Country Club Hotel & Spa","301 Carol Rd",65049,(573) 964-2200,"www.countryclubhotel.com/","n","n","n","n","n","n"
"904","Country Club Lanes","401 W 19th St",65026,(573) 392-2331,,"n","n","n","n","n","n"
"110","Country Club Resort","250 Racquet Club Drive",65049,(573) 964-2200,"http://www.countryclubhotel.com/index.php","n","n","n","n","n","n"
"203","Country Club Restaurant-Lounge","250 Racquet Club Drive",65049,(573) 964-2200,"http://www.countryclubhotel.com/index.php","n","n","n","n","n","n"
"301","Country Club Restaurant-Lounge","250 Racquet Club Drive",65049,(573) 964-2200,"http://www.countryclubhotel.com/index.php","n","n","n","n","n","n"
"105","Country Hearth Inn","3513 Highway 54",65065,(573) 365-4566,"www.countryhearthosagebeach.com/","n","n","n","n","n","n"
"203","Cousins","601 N Main St",65037,(573) 374-0922,,"n","n","n","n","n","n"
"203","Cozy Coney Café","1018 Highway KK",65065,(573) 348-3324,,"n","n","n","n","n","n"
"110","Creel Resort","166 Creel Dr",65052,(573) 346-2123,,"n","n","n","n","n","n"
"203","Cree-Mee Freeze","801 S Aurora St",65026,(573) 392-5418,,"n","n","n","n","n","n"
"203","Cricket's Bar & Grill","12142 N State Highway 5",65079,(573) 374-4177,,"n","n","n","n","n","n"
"301","Cricket's Bar & Grill","12142 N State Highway 5",65079,(573) 374-4177,,"n","n","n","n","n","n"
"107","Cross Creek RV Park","41 Old Trail Rd",65026,(573) 365-1211,"http://crosscreekrvpark.com/","n","n","n","n","n","n"
"105","Cross Pointe Hotel","31434 Main St",65072,(573) 365-0600,,"n","n","n","n","n","n"
"203","Crossroads Café & Convenience","630 N State Highway 7",65020,(573) 873-3545,,"n","n","n","n","n","n"
"103","Crystal Water Villas Inc","31683 Pistol Point Loop",65037,(573) 372-3555,"www.crystalwatervillas.com/","n","n","n","n","n","n"
"203","Culver's","5785 Highway 54",65065,(573) 302-0244,"http://culvers.com/","n","n","n","n","n","n"
"710","Cutty's II","440 Passover Rd",65065,(573) 348-6160,,"n","n","n","n","n","n"
"710","Cutty's Wharf","440 Passover Rd",65065,(573) 348-3002,,"n","n","n","n","n","n"
"203","Dairy Queen","619 N State Highway 5",65020,(573) 346-5855,,"n","n","n","n","n","n"
"203","Dairy Queen","151 S Main St",65037,(573) 374-5004,,"n","n","n","n","n","n"
"203","Dam Diner","1080 Bagnell Dam Blvd",65049,(573) 365-5934,,"n","n","n","n","n","n"
"203","Dari Kup","135 S Monroe St",65084,(573) 378-4625,,"n","n","n","n","n","n"
"203","Dave & Manuel's Taco Shop","5838 Highway 54",65065,(573) 348-6060,,"n","n","n","n","n","n"
"612","Dave Mungenast Yacht Club Marina","4815 Windjammer ",65065,(573) 302-8000,,"n","n","n","n","n","n"
"203","Daylight Bakery","14 Valley Rd",65079,(573) 374-0700,,"n","n","n","n","n","n"
"105","Deepwater Inn","11609 N State Highway 5",65079,(573) 374-7228,,"n","n","n","n","n","n"
"110","Deepwater Inn","11609 N State Highway 5",65079,(573) 374-7228,,"n","n","n","n","n","n"
"607 ","Deer Chase Golf Club LLC","770 Deer Chase Rd",65052,(573) 346-6117,"http://deerchasegolf.com/","n","n","n","n","n","n"
"107","Deer Valley Park","1028 Deer Valley Rd",65079,(573) 374-5277,"www.deervalleypark.com","n","n","n","n","n","n"
"203","Dempsey's Steak House","2079 State Road Y",65052,(573) 346-1141,,"n","n","n","n","n","n"
"203","Denny's ","3499 Bagnell Dam Blvd",65049,(573) 365-4980,,"n","n","n","n","n","n"
"203","Der Essen Platz","8 Bridal Cave Rd",65020,(573) 346-1122,,"n","n","n","n","n","n"
"107","Der Vater's Edge RV Park","15 Der Vaters Dr",65020,(573) 346-5230,,"n","n","n","n","n","n"
"612","Der Vater's Edge RV Park","15 Der Vaters Dr",65020,(573) 346-5230,,"n","n","n","n","n","n"
"203","Dinnerbell Restaurant","911 S Aurora St",65026,(573) 392-0101,,"n","n","n","n","n","n"
"203","Dirty Dock Bar & Grill","199 Warf Pl",65020,(573) 873-0666,,"n","n","n","n","n","n"
"301","Dirty Dock Bar & Grill","199 Warf Pl",65020,(573) 873-0666,,"n","n","n","n","n","n"
"301","Docknockers Beachbar & Grill","700 Crow Road",65049,(573) 365-6899,"http://www.docknockers.com/","n","n","n","n","n","n"
"203","Docknockers Beachbar & Grill","700 Crow Road",65049,(573) 365-6899,"http://www.docknockers.com/","n","n","n","n","n","n"
"203","Dog Days Bar & Grill","1232 Jeffries Rd",65065,(573) 348-9797,"http://dogdays.ws/","n","n","n","n","n","n"
"301","Dog Days Bar & Grill","1232 Jeffries Rd",65065,(573) 348-9797,"http://dogdays.ws/","n","n","n","n","n","n"
"710","Dogwood Acres Boat Rental","14 Lamp Post Ct",65079,(573) 374-5956,"http://www.funlake.com/accommodations/dogwoodacres/","n","n","n","n","n","n"
"110","Dogwood Acres Resort","14 Lamp Post Ct",65079,(573) 374-5956,"http://www.funlake.com/accommodations/dogwoodacres/","n","n","n","n","n","n"
"105","Dogwood Acres Resort","14 Lamp Post Ct",65079,(573) 374-5956,"http://www.funlake.com/accommodations/dogwoodacres/","n","n","n","n","n","n"
"609","Dogwood Hills Driving Range","1252 Highway KK",65065,(573) 348-1735,"http://dogwoodhillsresort.com/","n","n","n","n","n","n"
"105","Dogwood Hills Resort","1252 Highway KK",65065,(800) 220-6571,"http://dogwoodhillsresort.com/","n","n","n","n","n","n"
"110","Dogwood Hills Resort","1252 Highway KK",65065,(573) 348-1735,"http://dogwoodhillsresort.com/","n","n","n","n","n","n"
"607","Dogwood Hills Resort","1252 Highway KK",65065,(573) 348-1735,"http://dogwoodhillsresort.com/","n","n","n","n","n","n"
"203","Domenico's Italian Restaurant","4737 Highway 54",65065,(573) 348-5335,,"n","n","n","n","n","n"
"203","Domino's Pizza","3579 Highway 54",65065,(573) 964-6100,,"n","n","n","n","n","n"
"301","Donna's Ice House","2097 State Road Y ",65052,(573) 317-1109,,"n","n","n","n","n","n"
"203","Dragon House Café","5926 Highway 54",65065,(573) 348-8993,,"n","n","n","n","n","n"
"203","Dragon Lake Chinese Restaurant","107 W US Highway 54",65020,(573) 346-3545,,"n","n","n","n","n","n"
"110","Drift Inn Resort","54 Lake Rd",65065,(573) 346-2269,,"n","n","n","n","n","n"
"105","Drop Anchor Resort Motel","304 Highway 5",65037,(573) 372-6620,,"n","n","n","n","n","n"
"110","Drop Anchor Resort Motel","304 Highway 5",65037,(573) 372-6620,,"n","n","n","n","n","n"
"203","Duck Restaurant","67 Cherokee Rd",65049,(573) 365-9973,,"n","n","n","n","n","n"
"301","Dude's Tavern","187 Main St",65486,(573) 793-6549,,"n","n","n","n","n","n"
"501","Duenke Enterprises","1026 Palisades Blvd #9",65065,(573) 348-1758,,"n","n","n","n","n","n"
"203","Dummy","27486 Cross Ln",65011,(573) 372-2191,,"n","n","n","n","n","n"
"301","Dummy","27486 Cross Ln",65011,(573) 372-2191,,"n","n","n","n","n","n"
"203","Eager Beaver Restaurant","1502 S Business Highway 54",65026,(573) 392-7442,,"n","n","n","n","n","n"
"904","Eagle Lanes","914 E Highway 42",65065,(573) 302-7170,,"n","n","n","n","n","n"
"301","Eagles Roost","33880 Ivy Bend Rd",65078,(573) 372-9903,,"n","n","n","n","n","n"
"301","Earth Angelz","24 Twiggy Ln",65026,(573) 392-0999,,"n","n","n","n","n","n"
"105","Econo Lodge - Lake of the Ozarks","5760 Highway 54",65065,(573) 348-1781,"www.choicehotels.com/","n","n","n","n","n","n"
"105","Edgewater Beach Resort","1160 Bagnell Dam Blvd",65049,(573) 365-6044,,"n","n","n","n","n","n"
"110","Edgewater Beach Resort","1160 Bagnell Dam Blvd",65049,(573) 365-6044,,"n","n","n","n","n","n"
"302","Eichenberg Winery","103 N Olive",65325,(660) 668-3511,"http://www.eichenbergwinery.com/","n","n","n","n","n","n"
"203","El Jimador","5256 Hwy 54",65065,(573) 348-3834,"http://www.lakeoftheozarksbars.com/eljim.htm","n","n","n","n","n","n"
"301","El Jimador","5256 Hwy 54",65065,(573) 348-3834,"http://www.lakeoftheozarksbars.com/eljim.htm","n","n","n","n","n","n"
"105","El Kay Lake View Motel & Resort","21 El Kay Dr",65020,(573) 873-5361,,"n","n","n","n","n","n"
"110","El Kay Lake View Motel & Resort","21 El Kay Dr",65020,(573) 873-5361,,"n","n","n","n","n","n"
"713","Eldon Airport Admin","101 S Oak",65026,(573) 392-2145,,"n","n","n","n","n","n"
"607","Eldon Golf Club","35 Golf Course Rd",65026,(573) 392-4172,"www.eldoncountryclub.com","n","n","n","n","n","n"
"105","Eldon Inn","200 N Business 54",65026,(573) 392-5684,,"n","n","n","n","n","n"
"903","Elks Lodge","174 Elks Ln",65037,(573) 374-4781,,"n","n","n","n","n","n"
"203","Embers Restaurant & Lounge","Business 54",65026,(573) 392-6322,,"n","n","n","n","n","n"
"301","Embers Restaurant & Lounge","Business 54",65026,(573) 392-6322,,"n","n","n","n","n","n"
"704","Enterprise Rent A Car","1100 Bluff Dr",65065,(573) 348-1534,,"n","n","n","n","n","n"
"203","Fancher's Pizza","2326 Hwy 17",65486,(573) 793-6825,,"n","n","n","n","n","n"
"203","Figaros Pizza & Subs","4824 Highway 54",65065,(573) 302-4300,,"n","n","n","n","n","n"
"612","First Mate Boat Charters","159 Bluewater Ct",65049,(573) 216-2050,"http://firstmatecharters.com/","n","n","n","n","n","n"
"801","First Mate Boat Charters","159 Bluewater Ct",65049,(573) 216-2050,"http://firstmatecharters.com/","n","n","n","n","n","n"
"804","First Mate Boat Charters","159 Bluewater Ct",65049,(573) 216-2050,"http://firstmatecharters.com/","n","n","n","n","n","n"
"203","Fish & Co","268 Wego Fish Ln",65020,(573) 873-0022,"http://www.thefishandcompany.com/Site/Welcome.html","n","n","n","n","n","n"
"110","Fisher Waters Resort","46 Fisher Waters Rd",65020,(573) 346-2166,,"n","n","n","n","n","n"
"105","Flame Resort","504 Flame Dr",65020,(573) 873-5065,,"n","n","n","n","n","n"
"110","Flame Resort","504 Flame Dr",65020,(573) 873-5065,,"n","n","n","n","n","n"
"110","Flame Resort","504 Flame Dr",65020,(573) 873-5065,,"n","n","n","n","n","n"
"203","Flatfooters Restaurant & Pub","96 Village Marina Rd",65026,(573) 365-1674,,"n","n","n","n","n","n"
"301","Flatfooters Restaurant & Pub","96 Village Marina Rd",65026,(573) 365-1674,,"n","n","n","n","n","n"
"301","Flirt LLC","843 Highway 42",65047,(573) 348-3977,,"n","n","n","n","n","n"
"110","Forever Resorts","220 Forever Dr",65020,(573) 873-3705,,"n","n","n","n","n","n"
"612","Forever Resorts","220 Forever Dr",65020,(573) 873-3705,,"n","n","n","n","n","n"
"107","Franky & Louie's Beach Front Bar & Grill","1028 Deer Valley Rd",65079,(573) 374-5750,"www.deervalleypark.com","n","n","n","n","n","n"
"710","Franky & Louie's Beach Front Bar & Grill","1028 Deer Valley Rd",65079,(573) 374-5750,"www.deervalleypark.com","n","n","n","n","n","n"
"203","Franky & Louie's Beach Front Bar & Grill","1028 Deer Valley Rd",65079,(573) 374-5750,"www.deervalleypark.com","n","n","n","n","n","n"
"301","Franky & Louie's Beach Front Bar & Grill","1028 Deer Valley Rd",65079,(573) 374-5750,"www.deervalleypark.com","n","n","n","n","n","n"
"612","Franky & Louie's Beach Front Bar & Grill","1028 Deer Valley Rd",65079,(573) 374-5750,"www.deervalleypark.com","n","n","n","n","n","n"
"203","Franky & Louie's Power Boats","1028 Deer Valley Rd",65079,(573) 374-5750,"www.deervalleypark.com","n","n","n","n","n","n"
"301","Frisky Frog","2325 Bittersweet Rd",65049,(573) 365-3466,"http://toadcove.com/","n","n","n","n","n","n"
"301","Frogs","15251 Fleener Dr",65037,(573) 372-2010,,"n","n","n","n","n","n"
"804","Fun Fisherman","226 Oldham Dr",65787,(573) 346-7694,,"n","n","n","n","n","n"
"301","Funky Monkey LLC","6432 Highway 54",65049,(573) 302-0423,,"n","n","n","n","n","n"
"612","G & G Marina","1528 Maritime",65787,(573) 346-2433,"http://www.ggmarina.com/","n","n","n","n","n","n"
"102","Garden House Bed & Breakfast","4 Haney Rd",65072,(573) 365-1221,"www.thegardenhousebnb.com/","n","n","n","n","n","n"
"203","Gascondade Grill & Inn","Mo-7 & Mo-133, #Jct",65556,(573) 765-3831,,"n","n","n","n","n","n"
"301","Gator's Bar & Grill","1022 Nautica Rd",65020,(573) 873-5115,,"n","n","n","n","n","n"
"203","Gator's Bar & Grill","1022 Nautica Rd",65020,(573) 873-5115,,"n","n","n","n","n","n"
"710","Getaway","1192 Lakeshore Dr",65065,(573) 348-6677,,"n","n","n","n","n","n"
"612","Getaway Boat & Jet Ski Rental","1192 Lakeshore Dr",65065,(573) 348-6677,"http://www.getawayatthelake.com/","n","n","n","n","n","n"
"102","Ginger Point Bed & Breakfast","34 Ginger Point",65049,(573) 365-6839,,"n","n","n","n","n","n"
"710 ","Glaize Bridge Rental","4877 Highway 54",65065,(573) 302-1955,,"n","n","n","n","n","n"
"612","Glencove At the Knolls","5940 Baydy Peak Rd",65065,(573) 348-3340,"http://glencovemarine.com/","n","n","n","n","n","n"
"710","Glencove At the Knolls","5940 Baydy Peak Rd",65065,(573) 348-3340,"http://glencovemarine.com/","n","n","n","n","n","n"
"804","Glencove At the Knolls","5940 Baydy Peak Rd",65065,(573) 348-3340,"http://glencovemarine.com/","n","n","n","n","n","n"
"710","Glencove Marine","147 Glencove Blvd",65049,(573) 365-4001,"http://glencovemarine.com/","n","n","n","n","n","n"
"612","Glencove Marine","147 Glencove Blvd",65049,(573) 365-4001,"http://glencovemarine.com/","n","n","n","n","n","n"
"804","Glencove Marine","147 Glencove Blvd",65049,(573) 365-4001,"http://glencovemarine.com/","n","n","n","n","n","n"
"612","Glencove Marine","3864 Highway 54",65065,(573) 348-1997,"http://glencovemarine.com/","n","n","n","n","n","n"
"710","Glencove Marine","3864 Highway 54",65065,(573) 348-1997,"http://glencovemarine.com/","n","n","n","n","n","n"
"804","Glencove Marine","3864 Highway 54",65065,(573) 348-1997,"http://glencovemarine.com/","n","n","n","n","n","n"
"612","Glencove Yacht Club","119 Westwood Dr",65020,(573) 365-3355,"http://glencovemarine.com/","n","n","n","n","n","n"
"710","Glencove Yacht Club","5211 Highway 54",65065,(573) 348-2269,"http://glencovemarine.com/","n","n","n","n","n","n"
"710","Glencove Yacht Club","119 Westwood Dr",65020,(573) 365-3355,"http://glencovemarine.com/","n","n","n","n","n","n"
"612","Glencove Yacht Club","5211 Highway 54",65065,(573) 348-2269,"http://glencovemarine.com/","n","n","n","n","n","n"
"804","Glencove Yacht Club","5211 Highway 54",65065,(573) 348-2269,"http://glencovemarine.com/","n","n","n","n","n","n"
"804","Glencove Yacht Club","119 Westwood Dr",65020,(573) 365-3355,"http://glencovemarine.com/","n","n","n","n","n","n"
"301","Glory Hole","77 Mockingbird Beach Dr",65020,(573) 873-3228,,"n","n","n","n","n","n"
"110","Golden Door Resort - Motel","4690 Highway 54",65065,(573) 348-2128,"http://goldendoormotel.com/","n","n","n","n","n","n"
"103","Golden Door Resort - Motel","4690 Highway 54",65065,(573) 348-2128,"http://goldendoormotel.com/","n","n","n","n","n","n"
"103","Golden Horseshoe Resort","38 Golden Dr",65049,(573) 365-2642,,"n","n","n","n","n","n"
"110","Golden Horseshoe Resort","38 Golden Dr",65049,(573) 365-2642,,"n","n","n","n","n","n"
"110","Granada Resort","275 Flynn Rd",65049,(573) 365-2940,,"n","n","n","n","n","n"
"713","Grand Glaize Airport","957 Airport Rd",65065,(573) 348-4469,,"n","n","n","n","n","n"
"710","Grand Glaize Beach Marina","711 Public Beach Rd",65065,(573) 348-1233,,"n","n","n","n","n","n"
"612","Grand Glaize Beach Marina","711 Public Beach Rd",65065,(573) 348-1233,,"n","n","n","n","n","n"
"107","Gravois Creek Camp Ground","24361 Highway 5 ",65084,(573) 372-3211,,"n","n","n","n","n","n"
"107","Greenmill Campground","7744 State Road J",65787,(573) 363-5577,,"n","n","n","n","n","n"
"203","Greenside Restaurant at Lake Valley Country Club","369 Lake Valley Dr",65020,(573) 346-7213,"www.lakevalleygolf.com","n","n","n","n","n","n"
"302","Grey Bear Vineyards & Winery","25992 Highway T",65078,(573) 377-4313,"www.greybearvineyards.com/","n","n","n","n","n","n"
"301","Grey Bear Vineyards & Winery","25992 Highway T",65078,(573) 377-4313,"http://www.greybearvineyards.com/","n","n","n","n","n","n"
"203","Gull-Ables","91 E US Highway 54",65020,(573) 346-4994,,"n","n","n","n","n","n"
"203","H K's Restaurant","315 Four Seasons Dr",65049,(573) 365-8509,,"n","n","n","n","n","n"
"301","Half Moon Saloon & Steakhouse","62 Charger Dr",65786,(573) 363-0500,,"n","n","n","n","n","n"
"203","Half Moon Saloon & Steakhouse","62 Charger Dr",65786,(573) 363-0500,,"n","n","n","n","n","n"
"203","Half Sauced","4185 Highway 54",65065,(573) 348-3200,,"n","n","n","n","n","n"
"203","Happy Fisherman","4676 Highway 54",65065,(573) 348-3311,,"n","n","n","n","n","n"
"203","Happy Garden","1107 S Aurora St",65026,(573) 392-8333,,"n","n","n","n","n","n"
"612","Harbour Marina","28364 Kettle Rd",65037,(573) 372-6200,,"n","n","n","n","n","n"
"203","Hardee's","4637 Highway 54",65065,(573) 348-5732,,"n","n","n","n","n","n"
"608","Hart's Horshoe Bend Ski School","255 Clover Point",65049,(573) 365-3382,,"n","n","n","n","n","n"
"107","Hava Space Rental Park","13242 Montana Rd",65037,(573) 372-3466,,"n","n","n","n","n","n"
"105","Hawks Nest Lodge & Condiminium","5136 Highway 54",65065,(573) 348-1741,,"n","n","n","n","n","n"
"105","Hawks Nest Lodge & Condiminium","5136 Highway 54",65065,(573) 348-1741,,"n","n","n","n","n","n"
"105","Heritage Inn & Suites","10 Midway Rd",65026,(573) 392-2100,,"n","n","n","n","n","n"
"110","Hiawatha Beach Resort","29358 Hiawatha Dr",65078,(573) 377-2702,,"n","n","n","n","n","n"
"105","Hiawatha Beach Resort","29358 Hiawatha Dr",65078,(573) 377-2702,,"n","n","n","n","n","n"
"301","Hillbilly Yacht Club Bar & Grill","14952 Navajo Beach Rd",65037,(573) 372-0188,,"n","n","n","n","n","n"
"203","Hillbilly Yacht Club Bar & Grill","14952 Navajo Beach Rd",65037,(573) 372-0188,,"n","n","n","n","n","n"
"105","Hilty Inn Bed & Breakfast","206 E Jasper St",65084,(573) 378-2020,"www.hiltyinnbedandbreakfast.com","n","n","n","n","n","n"
"102","Hilty Inn Bed & Breakfast","206 E Jasper St",65084,(573) 378-2020,"www.hiltyinnbedandbreakfast.com","n","n","n","n","n","n"
"612","Hi-Way Cove Marina","87 Hi-Way Cove Cir",65020,(573) 374-4244,,"n","n","n","n","n","n"
"105","Holiday Inn Express Osage Beach (Premium Outlet)","4533 Highway 54",65065,(800) 345-8082,"www.ichotelsgroup.com/h/d/ex/1/en/hotel/osbmo?&cm_mmc=mdpr-_-yellowpages-_-ex-_-osbmo","n","n","n","n","n","n"
"103","Holiday Shores Resort","4216 Orville Dr, #9",65065,(573) 348-3438,"http://www.holidayshoresresort.com/","n","n","n","n","n","n"
"804","Holiday Shores Resort","4216 Orville Dr, #9",65065,(573) 348-3438,"http://www.holidayshoresresort.com/","n","n","n","n","n","n"
"110","Holiday Shores Resort","4216 Orville Dr, #9",65065,(573) 348-3438,"http://www.holidayshoresresort.com/","n","n","n","n","n","n"
"203","Hooligan Bay Resort","123 Hooligan Bay Dr",65079,(573) 374-6905,,"n","n","n","n","n","n"
"105","Hooligan Bay Resort","123 Hooligan Bay Dr",65079,(573) 374-6905,,"n","n","n","n","n","n"
"110","Horny Toad Bar & Grill","2325 Bittersweet Rd",65049,(573) 365-5500,"http://toadcove.com/","n","n","n","n","n","n"
"202","Horny Toad Bar & Grill","2325 Bittersweet Rd",65049,(573) 365-5500,"http://toadcove.com/","n","n","n","n","n","n"
"203","Horny Toad Bar & Grill","2325 Bittersweet Rd",65049,(573) 365-5500,"http://toadcove.com/","n","n","n","n","n","n"
"301","Horny Toad Bar & Grill","2325 Bittersweet Rd",65049,(573) 365-5500,"http://toadcove.com/","n","n","n","n","n","n"
"612","Horny Toad Bar & Grill","2325 Bittersweet Rd",65049,(573) 365-5500,"http://toadcove.com/","n","n","n","n","n","n"
"710","Horny Toad Bar & Grill","2325 Bittersweet Rd",65049,(573) 365-5500,"http://toadcove.com/","n","n","n","n","n","n"
"103","Horny Toad Bar & Grill","2325 Bittersweet Rd",65049,(573) 365-5500,"http://toadcove.com/","n","n","n","n","n","n"
"105","Howard Johnson","4755 Highway 54",65065,(573) 348-0600,,"n","n","n","n","n","n"
"203","Huckleberry's","1006 Bagnell Dam Blvd",65049,(573) 365-3300,,"n","n","n","n","n","n"
"203","Hummingbird Restaurant","2337 Highway 17",65486,(573) 793-2841,,"n","n","n","n","n","n"
"301","Hurricane Dolly's","258 Trails End Rd",65079,(573) 374-2895,,"n","n","n","n","n","n"
"203","Hut","251 Main St",65064,(573) 392-6552,,"n","n","n","n","n","n"
"110","Hyd-A-Way Cove Resort","562 Hyd A Way Rd",65020,(573) 346-2673,,"n","n","n","n","n","n"
"203","Iberia Drive-In INC","2361 Highway 17",65486,(573) 793-2555,,"n","n","n","n","n","n"
"203","Imo's Pizza","4344 Highway 54",65065,(573) 302-8300,"http://imospizza.com/","n","n","n","n","n","n"
"607","Indian Rock Golf Club","100 Indian Lake Ave",65038,(573) 372-3023,"http://www.indianrockgolfclub.com/","n","n","n","n","n","n"
"203","Indian Rock Golf Club","100 Indian Lake Ave",65038,(573) 372-3023,"http://www.indianrockgolfclub.com/","n","n","n","n","n","n"
"609","Indian Rock Golf Club","100 Indian Lake Ave",65038,(573) 372-3023,"http://www.indianrockgolfclub.com/","n","n","n","n","n","n"
"110","Inn at Grand Glaize","5142 Highway 54",65065,(573) 348-4731,"http://innatgrandglaize.com/index.html","n","n","n","n","n","n"
"102","Inn at Grand Glaize","5142 Highway 54",65065,(573) 348-4731,"http://innatgrandglaize.com/index.html","n","n","n","n","n","n"
"612","Inn at Grand Glaize","5142 Highway 54",65065,(573) 348-4731,"http://innatgrandglaize.com/index.html","n","n","n","n","n","n"
"710","Inn at Grand Glaize","5142 Highway 54",65065,(573) 348-4731,"http://innatgrandglaize.com/index.html","n","n","n","n","n","n"
"804","Inn at Grand Glaize","5142 Highway 54",65065,(573) 348-4731,"http://innatgrandglaize.com/index.html","n","n","n","n","n","n"
"105","Inn at Harbour Ridge Bed & Breakfast","6334 Red Barn Rd",65065,(573) 302-0411,"www.harbourridgeinn.com/","n","n","n","n","n","n"
"105","Inn at The Harbor","28372 Kettle Rd",65037,(573) 372-3248,,"n","n","n","n","n","n"
"203","Inn at The Harbor","28372 Kettle Rd",65037,(573) 372-3248,,"n","n","n","n","n","n"
"110","Inn at The Harbor","28372 Kettle Rd",65037,(573) 372-3248,,"n","n","n","n","n","n"
"110","Irish Hills Resort","256 Irish Hills Dr",65020,(573) 873-5375,,"n","n","n","n","n","n"
"203","It's 12 O'Clock Somewhere","1163 Irontown Dr",65787,(573) 347-2528,,"n","n","n","n","n","n"
"612","Ivy Bend Resort & Marina","33321 Marina Dr",65078,(573) 372-5900,,"n","n","n","n","n","n"
"203","Ivy Bend Resort & Marina","33321 Marina Dr",65078,(573) 372-5900,,"n","n","n","n","n","n"
"110","Ivy Bend Resort & Marina","33321 Marina Dr",65078,(573) 372-5900,,"n","n","n","n","n","n"
"301","J Bruner's","5166 Hwy 54",65065,(573) 348-2966,"www.jbruners.com","n","n","n","n","n","n"
"202","J Bruner's","5166 Hwy 54",65065,(573) 348-2966,"www.jbruners.com","n","n","n","n","n","n"
"203","J P's Restaurant","199 Warf Pl",65020,(573) 873-3520,,"n","n","n","n","n","n"
"203","J.D. Waddles","5142 Highway 54",65065,(800) 348-4731,"http://www.innatgrandglaize.com/dining.html","n","n","n","n","n","n"
"107","Jacob's Cave/Zwanzig Campground","23114 Hwy TT",65084,(573) 378-4374,"http://www.jacobscave.com/","n","n","n","n","n","n"
"710","Jamin Jet Ski Rental","Hwy 54 & Lake Rd 29",65065,(573) 348-6160,,"n","n","n","n","n","n"
"710","Jamin Jet Ski Rental","440 Passover Rd",65065,(573) 348-6160,,"n","n","n","n","n","n"
"301","JB Hook's Great Ocean Fish","2260 Bagnell Dam Blvd",65049,(573) 365-3255,"http://jbhooks.com/","n","n","n","n","n","n"
"203","JB Hook's Great Ocean Fish","2260 Bagnell Dam Blvd",65049,(573) 365-3255,"http://jbhooks.com/","n","n","n","n","n","n"
"301","Jeremiah's Night Club","2325 Bittersweet Rd",65049,(573) 365-2350,"http://toadcove.com/","n","n","n","n","n","n"
"301","Jessie's Sports Bar","16218 N State Highway 5",65037,(573) 374-8220,,"n","n","n","n","n","n"
"203","JJ Twigs Pizza & Pub","1815 Bagnell Dam Blvd",65049,(573) 365-9911,"http://www.jjtwigs.com/","n","n","n","n","n","n"
"301","JJ Twigs Pizza & Pub","1815 Bagnell Dam Blvd",65049,(573) 365-9911,"http://www.jjtwigs.com/","n","n","n","n","n","n"
"203","Joe's Place","25955 Highway P",65556,(573) 765-5040,,"n","n","n","n","n","n"
"301","Joe's Place","25955 Highway P",65556,(573) 765-5040,,"n","n","n","n","n","n"
"203","Jolly Rogers","28443 Polk Dr",65072,(573) 392-0700,,"n","n","n","n","n","n"
"301","Jolly Rogers","28443 Polk Dr",65072,(573) 392-0700,,"n","n","n","n","n","n"
"203","J's Grill and Sports Bar at Indian Rock Golf Club","100 Indian Lake Ave",65038,(573) 372-3956,"http://www.jsgrillandsportsbar.com/","n","n","n","n","n","n"
"110","Kalfran Lodge","1091 Kalfran Dr",65065,(573) 348-2266,,"n","n","n","n","n","n"
"110","Kapilana Beach Resort","793 Winn Rd",65065,(573) 348-2151,"www.kapilana.net/","n","n","n","n","n","n"
"105","Kapilana Beach Resort","793 Winn Rd",65065,(573) 348-2151,"http://www.kapilana.net/","n","n","n","n","n","n"
"203","Kate's Diner","119 W Jasper St",65084,(573) 378-5193,,"n","n","n","n","n","n"
"110","Kay Lynn Resort","1091 Redbud Rd",65065,(573) 348-2289,,"n","n","n","n","n","n"
"203","Kay's Home Cooking","4196 Highway 54",65065,(573) 348-2217,,"n","n","n","n","n","n"
"107","Kelly's Landing","252 Nichols Rd",65326,(573) 345-0055,,"n","n","n","n","n","n"
"110","Kelly's Landing","252 Nichols Rd",65326,(573) 345-0055,,"n","n","n","n","n","n"
"804","Kelly's Landing","252 Nichols Rd",65326,(573) 345-0055,,"n","n","n","n","n","n"
"612","Kelly's Landing","252 Nichols Rd",65326,(573) 345-0055,,"n","n","n","n","n","n"
"710","Kelly's Landing","252 Nichols Rd",65326,(573) 345-0055,,"n","n","n","n","n","n"
"203","Kelly's Port","5250 Dude Ranch",65065,(573) 348-4700,"http://www.kellysport.com/","n","n","n","n","n","n"
"612","Ken's Marine & RV","2859 S State Highway 5",65020,(573) 317-9690,,"n","n","n","n","n","n"
"710","Ken's Marine & RV","2859 S State Highway 5",65020,(573) 317-9690,,"n","n","n","n","n","n"
"203","Kentucky House","200 N Commercial St",65452,(573) 736-2970,,"n","n","n","n","n","n"
"203","KFC","4828 Highway 54",65065,(573) 348-5588,"http://kfc.com/","n","n","n","n","n","n"
"203","KFC","298 E US Highway 54",65020,(573) 346-3551,"http://kfc.com/","n","n","n","n","n","n"
"203","KFC ","1501 S Business Highway 54",65026,(573) 392-3555,"http://kfc.com/","n","n","n","n","n","n"
"110","King's Pointe Resort & RV Park","591 Purvis Rd",65079,(573) 374-9400,,"n","n","n","n","n","n"
"107","King's Pointe Resort & RV Park","591 Purvis Rd",65079,(573) 374-9400,,"n","n","n","n","n","n"
"103","Kirkwood Lodge","1192 Lakeshore Dr",65065,(573) 348-2161,,"n","n","n","n","n","n"
"105","Kirkwood Lodge","1192 Lakeshore Dr",65065,(573) 348-2161,,"n","n","n","n","n","n"
"203","Knights of Columbus","1023 E US Highway 54",65020,(573) 346-0010,,"n","n","n","n","n","n"
"103","Knolls Resort Condiminiums","5940 Baydy Peak Rd",65065,(573) 348-2236,"www.knollsresort.com/","n","n","n","n","n","n"
"110","Knolls Resort Condiminiums","5940 Baydy Peak Rd",65065,(573) 348-2236,"http://www.knollsresort.com/","n","n","n","n","n","n"
"203","Knookers Grill & Bar","11753 N State Highway 5",65079,(573) 374-9060,,"n","n","n","n","n","n"
"301","Knookers Grill & Bar","11753 N State Highway 5",65079,(573) 374-9060,,"n","n","n","n","n","n"
"103","Knotty Pine Resort","66 Knotty Pine Dr",65020,(573) 873-5181,,"n","n","n","n","n","n"
"110","Knotty Pine Resort","66 Knotty Pine Dr",65020,(573) 873-5181,,"n","n","n","n","n","n"
"105","Kon-Tiki Resort","64 Kon Tiki Circle",65020,(573) 873-5320,"www.kontikiozarks.com/","n","n","n","n","n","n"
"110","Kon-Tiki Resort","64 Kon Tiki Circle",65020,(573) 873-5320,"http://www.kontikiozarks.com/","n","n","n","n","n","n"
"804","Kuhl Breeze Charters","689 Niangua Shores Rd",65020,(573) 286-6712,"http://www.kuhlbreezecharters.com/","n","n","n","n","n","n"
"110","Kula Bay Resort","28 Kick Back Loop",65079,(573) 286-2641,,"n","n","n","n","n","n"
"203","Lafata's Italian Pizza & Subs","794 Highway HH",65049,(573) 365-6989,,"n","n","n","n","n","n"
"301","Lafata's Italian Pizza & Subs","4312 Horseshoe Bend Pkwy",65049,(573) 365-6989,,"n","n","n","n","n","n"
"110","Lake Breeze Resort","91 Breeze Dr",65065,(573) 873-5343,,"n","n","n","n","n","n"
"110","Lake Chalet Resort","970 Chateau Ln",65065,(573) 348-4718,,"n","n","n","n","n","n"
"105","Lake Chateau Resort Inn","5066 Highway 54",65020,(573) 348-2791,,"n","n","n","n","n","n"
"612","Lake of the Ozarks Marina","220 Forever Dr",65020,(573) 873-3705,,"n","n","n","n","n","n"
"606","Lake of the Ozarks State Park","304 Highway 134",65047,(573) 348-2694,"http://mostateparks.com/","n","n","n","n","n","n"
"804","Lake Ozark Guide Service","32 Timber Rd",65049,(573) 365-0006,"www.lakeozarkguideservice.com","n","n","n","n","n","n"
"612","Lake Port Marina Inc","5011 Lakeport Dr",65065,(573) 348-5736,"http://lakeportmarina.com/","n","n","n","n","n","n"
"203","Lake Valley Country Club","369 Lake Valley Dr",65020,(573) 346-7213,"www.lakevalleygolf.com","n","n","n","n","n","n"
"607","Lake Valley Golf & Country Club","369 Lake Valley Dr",65020,(573) 346-7218,"www.lakevalleygolf.com","n","n","n","n","n","n"
"110","Lake Villas Resort","500 Wings Cir",65079,(573) 374-9300,,"n","n","n","n","n","n"
"901","Lake West Cinema","1651 Highway O",65037,(573) 372-5554,,"n","n","n","n","n","n"
"103","Lakehouse Inn","245 S Main St",65037,(573) 374-7744,,"n","n","n","n","n","n"
"612","Lakes Shores Marina","33480 Lakewood Shores Dr",65079,(573) 374-5257,,"n","n","n","n","n","n"
"110","Lakeview Resort","328 Lakeview Resort Blvd",65079,(573) 374-5555,"www.lakeview-resort.com/","n","n","n","n","n","n"
"103","Lakeview Resort","328 Lakeview Resort Blvd",65079,(573) 374-5555,"http://www.lakeview-resort.com/","n","n","n","n","n","n"
"105","Lakeview Resort","328 Lakeview Resort Blvd",65079,(573) 374-5555,"http://www.lakeview-resort.com/","n","n","n","n","n","n"
"105","Lakewood Resort Condiminiums","1029 Lakewood Cir",65065,(573) 348-5506,"http://lakewoodresort.com/","n","n","n","n","n","n"
"110","Lakewood Resort Condiminiums","1029 Lakewood Cir",65065,(573) 348-5506,"http://lakewoodresort.com/","n","n","n","n","n","n"
"301","Lampe Marine","28502 Highway Y",65072,(573) 392-2999,"http://lampemarine.com/","n","n","n","n","n","n"
"110","Lamplighter Resort","210 Lamp Lighter Dr",65020,(573) 873-5150,,"n","n","n","n","n","n"
"301","Last Dance","5923 Highway 54",65065,(573) 302-4480,,"n","n","n","n","n","n"
"612","Laurie Marine & Sporting Goods","31590 Highway 5",65037,(573) 374-6027,,"n","n","n","n","n","n"
"107","Laurie RV Park","515 Highway O",65037,(573) 374-8469,,"n","n","n","n","n","n"
"103","Lazy Days Resort & Condominiums","611 Lazy Days Road",65065,(573) 348-2930,"www.lazydaysresort.com/","n","n","n","n","n","n"
"110","Lazy Days Resort & Condominiums","611 Lazy Days Road",65065,(573) 348-2930,"http://www.lazydaysresort.com/","n","n","n","n","n","n"
"403","Le Mans Karts","100 Stanton Dr",65049,(573) 365-5551,,"n","n","n","n","n","n"
"713","Lee C Fine Airport","1000 City Pky",65065,(573) 348-5251,,"n","n","n","n","n","n"
"804","Leisure Lake Charters","3251 Bagnell Dam Blvd",65049,(573) 746-1672,"http://www.leisurelakecharters.com/","n","n","n","n","n","n"
"612","Lighthouse Marina","27 Lighthouse Marina Rd",65079,(573) 374-5256,,"n","n","n","n","n","n"
"710","Lighthouse Marina","27 Lighthouse Marina Rd",65079,(573) 374-5256,,"n","n","n","n","n","n"
"203","Lil' Rizzo's Italian Restaurant","929 Chef St",65065,(573) 302-1500,,"n","n","n","n","n","n"
"301","Lil' Rizzo's Italian Restaurant","2146 Horseshoe Bend Pkwy",65049,(573) 365-3003,,"n","n","n","n","n","n"
"110","Linga Longa Resort","258 Linga Longa Cir",65324,(573) 345-3535,,"n","n","n","n","n","n"
"107","Linn Creek Campground","137 Landrus Cir",65052,(573) 346-5488,,"n","n","n","n","n","n"
"710","Liquid Excitement Parasail","Hickory Ln",65065,(573) 348-4430,,"n","n","n","n","n","n"
"107","Little Niangua Camp Ground","275 Taylor Rd",65787,(573) 347-2728,,"n","n","n","n","n","n"
"607","Lodge of Four Seasons","315 Four Seasons Dr",65049,(573) 365-3000,"http://4seasonsresort.com/","n","n","n","n","n","n"
"612","Lodge of Four Seasons","315 Four Seasons Dr",65049,(573) 365-3000,"http://4seasonsresort.com/","n","n","n","n","n","n"
"203","Lodge of Four Seasons","315 Four Seasons Dr",65049,(573) 365-3000,"http://4seasonsresort.com/","n","n","n","n","n","n"
"103","Lodge of Four Seasons","315 Four Seasons Dr",65049,(573) 365-3000,"http://4seasonsresort.com/","n","n","n","n","n","n"
"110","Lodge of Four Seasons","315 Four Seasons Dr",65049,(573) 365-3000,"http://4seasonsresort.com/","n","n","n","n","n","n"
"110 ","Lone Oak Point","25 Lone Oak Ct",65079,(573) 374-7992,,"n","n","n","n","n","n"
"203","Lone Oak Point","25 Lone Oak Ct",65079,(573) 374-7992,,"n","n","n","n","n","n"
"110","Long Valley Resort","26008 Indian Creek Ln",65011,(573) 392-4753,,"n","n","n","n","n","n"
"203","Lucky's ","1140 Bagnell Dam Blvd",65049,(573) 964-6550,,"n","n","n","n","n","n"
"710","M & M Watercraft Rentals","40 Morning Rose Dr",65079,(573) 374-0410,,"n","n","n","n","n","n"
"203","Ma & Pa's Country Kettle","24255 Highway 5",65037,(573) 372-3776,,"n","n","n","n","n","n"
"103","Main Street Poverty Flats Village","5845 Highway 54",65065,(573) 348-5304,,"n","n","n","n","n","n"
"107","Majestic Oaks park","8 Majestic Oaks Rd",65026,(573) 365-1890,,"n","n","n","n","n","n"
"110","Mallard Point Resort Inc","155 Mallard Point Rd",65049,(573) 365-2623,"http://mallardpoint.com/","n","n","n","n","n","n"
"105","Mallard Point Resort Inc","155 Mallard Point Rd",65049,(573) 365-2623,"http://mallardpoint.com/","n","n","n","n","n","n"
"301","Maloney's Tavern","1165 N State Highway 5",65020,(573) 346-0005,,"n","n","n","n","n","n"
"110","Marina Bay Resort","Lake Road 54-30",65065,(314) 348-2200,,"n","n","n","n","n","n"
"105","Marina Bay Resort","Lake Road 54-30",65065,(314) 348-2200,,"n","n","n","n","n","n"
"612","MarineMax Port Arrowhead","3070 Bagnell Dam Blvd",65049,(573) 365-5382,"http://www.marinemax.com/","n","n","n","n","n","n"
"710","Mariner Boat Rental","188 Flynn Rd",65049,(573) 964-6191,,"n","n","n","n","n","n"
"710","Mariners Pier 31 Yacht Club","4514 Pier 31 Rd",65020,(573) 873-5860,"http://www.marinerpier31.com/","n","n","n","n","n","n"
"612","Mariners Pier 31 Yacht Club","4514 Pier 31 Rd",65020,(573) 873-5283,"http://www.marinerpier31.com/","n","n","n","n","n","n"
"301","Mariners Pier 31 Yacht Club","4514 Pier 31 Rd",65020,(573) 873-5283,"http://www.marinerpier31.com/","n","n","n","n","n","n"
"203","Market Basket Café","204 E McClurg Ave",65556,(573) 765-3366,,"n","n","n","n","n","n"
"203","Marty's","1162 S State Highway 5",65020,(573) 346-3163,,"n","n","n","n","n","n"
"612","Marty's Marine - Sales & Service","6755 Highway 54",65065,(573) 346-0023,"http://www.martysmarine.com/","n","n","n","n","n","n"
"203","Marz Pizza & Lounge","107 Highway O",65037,(573) 374-9973,,"n","n","n","n","n","n"
"301","Marz Pizza & Lounge","107 Highway O",65037,(573) 374-9973,,"n","n","n","n","n","n"
"612","McCormick Marine","14299 Keepsake Rd",65037,(573) 372-5337,,"n","n","n","n","n","n"
"203","McDonald's","1726 Bagnell Dam Blvd",65049,(573) 356-6013,"http://mcdonalds.com/","n","n","n","n","n","n"
"203","McDonald's","6033 Highway 54",65065,(573) 348-0566,"http://mcdonalds.com/","n","n","n","n","n","n"
"203","McDonald's","272 E US Highway 54",65020,(573) 346-3715,,"n","n","n","n","n","n"
"203 ","McDonald's","401 S Aurora St",65026,(573) 392-1487,"http://mcdonalds.com/","n","n","n","n","n","n"
"203","McDonald's","1000 W Newton St",65084,(573) 378-4961,,"n","n","n","n","n","n"
"203","McDonald's","4072 Highway 54",65065,(573) 348-3966,"http://mcdonalds.com/","n","n","n","n","n","n"
"203","Mem's Country Cupboard","888 N State Highway 5",65020,(573) 317-1818,,"n","n","n","n","n","n"
"301","Mexicali Blues","6605 Highway 54",65065,(573) 302-0419,"http://mexicalibluescantina.com/","n","n","n","n","n","n"
"203","Mexicali Blues","6605 Highway 54",65065,(573) 302-0419,"http://mexicalibluescantina.com/","n","n","n","n","n","n"
"203","Michael's Steak Chalet","1440 Swiss Village Rd",65065,(573) 348-3611,,"n","n","n","n","n","n"
"612","Mike Fink's Marina","1100 Bagnell Dam Blvd",65049,(573) 365-6557,"http://www.mikefinksmarina.net/","n","n","n","n","n","n"
"710","Mike Fink's Marina","1100 Bagnell Dam Blvd",65049,(573) 365-6557,"http://www.mikefinksmarina.net/","n","n","n","n","n","n"
"107","Mike's Greenmill Campground","7744 State Road J",65787,(573) 363-5577,,"n","n","n","n","n","n"
"203","Mikey's Pizza Grill & Subs","738 Highway 42",65486,(573) 793-2874,,"n","n","n","n","n","n"
"612","Miller's Landing","1431 Runabout Dr",65065,(573) 348-5268,,"n","n","n","n","n","n"
"710","Miller's Landing","1431 Runabout Dr",65065,(573) 348-5268,,"n","n","n","n","n","n"
"612","Millstone Marina","18096 Highway O",65037,(573) 372-6272,,"n","n","n","n","n","n"
"203","Millstone Marina","18096 Highway O",65037,(573) 372-6272,,"n","n","n","n","n","n"
"612","Mimosa Beach Marina & Convenience Store","510 Mimosa Beach Dr",65324,,,"n","n","n","n","n","n"
"402","Miner Mike's & Busters","4515 Highway 54",65065,(573) 348-2126,"http://minermikes.com/","n","n","n","n","n","n"
"401","Miner Mike's & Busters","4515 Highway 54",65065,(573) 348-2126,"http://minermikes.com/","n","n","n","n","n","n"
"203","Mist","315 Four Seasons Dr",65049,(573) 365-3000,"http://www.mistnightclub.net/","n","n","n","n","n","n"
"203","Mitch & Duff's Restaurant-Bar","1252 Highway KK",65065,(573) 348-6669,,"n","n","n","n","n","n"
"301","Mitch & Duff's Restaurant-Bar","1252 Highway KK",65065,(573) 348-6669,,"n","n","n","n","n","n"
"105","Moffett Cabin Rental","1139 Maritime Ln",65020,(573) 346-5484,,"n","n","n","n","n","n"
"203","Mojo's","5066 Highway 54",65065,(573) 365-4570,,"n","n","n","n","n","n"
"612","Montego Bay Marina","1629 Resorts Rd",65020,(573) 348-4911,"http://montegobaymarina.com/","n","n","n","n","n","n"
"710","Montego Bay Marina","1629 Resorts Rd",65020,(573) 348-4911,"http://montegobaymarina.com/","n","n","n","n","n","n"
"203","Montego's","408 Business 54",65026,(573) 392-7414,,"n","n","n","n","n","n"
"110","Moonie's Resort","296 Bakers Ln",65324,(573) 345-1220,,"n","n","n","n","n","n"
"301","Moorings Yacht Club","660 Malibu Rd",65065,(573) 348-0108,,"n","n","n","n","n","n"
"203","Moulder's Grill & Deli","16112 US Highway 54",65786,(573) 363-9998,,"n","n","n","n","n","n"
"901","Movie Tymes","108 Cecil St",65020,(573) 346-4060,,"n","n","n","n","n","n"
"301","Ms Kitty's Place","209 S Walnut St",65075,(573) 493-2372,,"n","n","n","n","n","n"
"203","Mulligan's Bar & Grill","100 Indian Lake Ave",65037,(573) 372-3956,,"n","n","n","n","n","n"
"301","Mulligan's Bar & Grill","100 Indian Lake Ave",65037,(573) 372-3956,,"n","n","n","n","n","n"
"301","Mystic Dragon","101 S Main St",65037,(573) 374-4881,,"n","n","n","n","n","n"
"203","Naboni's Pizzeria & Steakhouse","1651 Highway O",65037,(573) 372-2325,,"n","n","n","n","n","n"
"203","Next Door","1665 N State Highway 5",65020,(573) 346-2955,,"n","n","n","n","n","n"
"301","Night Moves","3721 Kaiser Rd",65047,(573) 302-4476,,"n","n","n","n","n","n"
"110","North Shore Resort","70 N Shore Resort Rd",65026,(573) 365-0234,,"n","n","n","n","n","n"
"107","North Shore RV Park & Campground","24 Oakmount Rd",65049,(573) 365-0749,,"n","n","n","n","n","n"
"612","Oakmount Boat Storage","153 Oak Mount Rd",65787,(573) 345-4399,,"n","n","n","n","n","n"
"607","Oaks At Tan-Tar-A Resort","State Route Kk",65065,(573) 348-8522,"http://tan-tar-a.com/","n","n","n","n","n","n"
"203","Oasis Restaurant","27002 N Highway 133",65556,(573) 765-5474,,"n","n","n","n","n","n"
"203","Oh Tommy's Pub & Grill","6285 N State Highway 7",65787,(573) 347-3133,,"n","n","n","n","n","n"
"301","Oh Tommy's Pub & Grill","6285 N State Highway 7",65787,(573) 347-3133,,"n","n","n","n","n","n"
"105","Old Kinderhook Golf Course","80 Cr 54-79",65020,(573) 317-3500,"http://www.oldkinderhook.com","n","n","n","n","n","n"
"103","Old Kinderhook Golf Course","80 Cr 54-79",65020,(573) 317-3500,"http://www.oldkinderhook.com","n","n","n","n","n","n"
"110","Old Kinderhook Golf Course","80 Cr 54-79",65020,(573) 317-3500,"http://www.oldkinderhook.com","n","n","n","n","n","n"
"607","Old Kinderhook Golf Course","80 Cr 54-79",65020,(573) 317-3500,"http://www.oldkinderhook.com","n","n","n","n","n","n"
"408","Old Time Photos","US-54-BR",65049,(573) 365-2939,,"n","n","n","n","n","n"
"203","Old World Bread & Coffee Co","323 E US Highway 54 #101",65020,(573) 346-0066,,"n","n","n","n","n","n"
"203","Olive Branch Restaurant","26955 Highway 5",65037,(573) 372-2090,,"n","n","n","n","n","n"
"105","On Hidden Pond Cove","128 Hidden Pond Cove",65037,(573) 374-1226,"www.onhiddenpondcove.com/","n","n","n","n","n","n"
"203","On the Rise Bakery & Bistro","5439 Highway 54",65065,(573) 348-4224,,"n","n","n","n","n","n"
"105","Orchid Motel","3420 Bagnell Dam Rd",65049,(573) 365-2680,,"n","n","n","n","n","n"
"612","Osage Beach Bait & Tackle","5441 Highway 54",65065,(573) 348-9333,,"n","n","n","n","n","n"
"612","Osage Beach Outlet","4540 Highway 54 #A2",65065,(573) 348-2065,"www.premiumoutlets.com","n","n","n","n","n","n"
"612","Osage Beach RV Park","3949 Campground Ln",65065,(573) 348-3445,,"n","n","n","n","n","n"
"103","Osage National Condominiums","100 Osage Hills Rd",65049,(573) 365-1100,,"n","n","n","n","n","n"
"110","Osage National Condominiums","100 Osage Hills Rd",65049,(573) 365-1100,,"n","n","n","n","n","n"
"607","Osage National Golf Course","400 Osage Hills Rd",65049,(573) 365-1950,,"n","n","n","n","n","n"
"203","Osage River Bar & Grill","247 S Main St",65037,(573) 374-3020,"http://www.lakeoftheozarksbars.com/OsageRiv.htm","n","n","n","n","n","n"
"301","Osage River Bar & Grill","247 S Main St",65037,(573) 374-3020,"http://www.lakeoftheozarksbars.com/OsageRiv.htm","n","n","n","n","n","n"
"901","Osage Village 5 Cinema","4540 Highway 54 # C4",65065,(573) 348-1900,,"n","n","n","n","n","n"
"105","Osage Village Motel","4616 Highway 54",65065,(573) 348-5207,,"n","n","n","n","n","n"
"802","Otten Aviation","10998 Highway D, #52",65084,(573) 378-6373,,"n","n","n","n","n","n"
"203","Our Place","400 Highway 5",65037,(573) 372-6210,,"n","n","n","n","n","n"
"203","Our Place Deli & Bakery","2545 Bagnell Dam Blvd",65049,(573) 365-2850,,"n","n","n","n","n","n"
"203","Outback Steakhouse","3930 Highway 54",65065,(573) 302-4670,"http://outback.com/","n","n","n","n","n","n"
"203","Outpost Bar & Grill","2010 State Road D",65020,(573) 317-9183,,"n","n","n","n","n","n"
"301","Outpost Bar & Grill","2010 State Road D",65020,(573) 317-9183,,"n","n","n","n","n","n"
"203","Ozark Mnt County BBQ","25610 Highway 135",65078,(573) 372-2266,,"n","n","n","n","n","n"
"107","Ozark Trails Family Campground","4171 E Highway 54",65052,(573) 346-5490,"www.ozarktrailsrvpark.com/","n","n","n","n","n","n"
"103","Ozark Trails Family Campground","4171 E Highway 54",65052,(573) 346-5490,"http://www.ozarktrailsrvpark.com/","n","n","n","n","n","n"
"110","Ozark Trails Family Campground","4171 E Highway 54",65052,(573) 346-5490,"http://www.ozarktrailsrvpark.com/","n","n","n","n","n","n"
"612","Ozark Village Resort & Marina","1062 Susan Rd",65049,(573) 365-2805,"www.ozarkvillageresort.com","n","n","n","n","n","n"
"710","Ozark Village Resort & Marina","1062 Susan Rd",65049,(573) 365-2805,"www.ozarkvillageresort.com","n","n","n","n","n","n"
"203","Ozark Village Resort & Marina","1062 Susan Rd",65049,(573) 365-2805,"www.ozarkvillageresort.com","n","n","n","n","n","n"
"103","Ozark Village Resort & Marina","1062 Susan Rd",65049,(573) 365-2805,"www.ozarkvillageresort.com","n","n","n","n","n","n"
"203","Ozarks Bar-B-Que","608 Wings Cir",65079,(573) 374-7769,,"n","n","n","n","n","n"
"203","Painted Pony Steak House","140 Highway 5",65037,(573) 372-0707,,"n","n","n","n","n","n"
"203","Panera Bread","4840 Highway 54",65065,(573) 302-0024,"www.panerabread.com","n","n","n","n","n","n"
"203","Papa John's Pizza","5896 Highway 54",65065,(573) 348-9400,"http://papajohns.com/","n","n","n","n","n","n"
"611","Paradise Parasail","1100 Bagnell Dam Blvd",65049,(573) 365-6757,"http://www.paradiseparasail.com/","n","n","n","n","n","n"
"203","Paradise Tropical Restaurant & Bar","430 Tropical Trail Dr",65079,(573) 374-4777,"http://www.paradisetropicalrestaurant.com/","n","n","n","n","n","n"
"301","Paradise Tropical Restaurant & Bar","430 Tropical Trail Dr",65079,(573) 374-4777,"http://www.paradisetropicalrestaurant.com/","n","n","n","n","n","n"
"301","Patros Place","302 N St Louis St",65486,(573) 793-2142,,"n","n","n","n","n","n"
"203","Patsy's & Sam's LLC","120 N Commercial St",65452,(573) 736-2167,,"n","n","n","n","n","n"
"203","Peace 'n' Plenty Country Café","5837 Highway 54",65065,(573) 348-1462,,"n","n","n","n","n","n"
"110","Peaceful Valley Resort","9 Peace Maker Rd",65079,(573) 374-5000,,"n","n","n","n","n","n"
"103","Peaceful Valley Resort","9 Peace Maker Rd",65079,(573) 374-5000,,"n","n","n","n","n","n"
"301","Pecker's Dueling Piano Bar","3285 Bagnell Dam Blvd",65049,(573) 365-4085,"http://toadcove.com/","n","n","n","n","n","n"
"203","Philadelphia Sandwich Shop","407 E 4th St",65026,(573) 392-8246,,"n","n","n","n","n","n"
"203","Pickled Pete's Sports Bar & Grill","5276 Highway 54",65065,(573) 302-8800,"http://www.lakeoftheozarksbars.com/pklpete.htm","n","n","n","n","n","n"
"301","Pickled Pete's Sports Bar & Grill","5276 Highway 54",65065,(573) 302-8800,"http://www.lakeoftheozarksbars.com/pklpete.htm","n","n","n","n","n","n"
"203","Pier 31","4514 Pier 31 Rd",65020,(573) 873-5283,,"n","n","n","n","n","n"
"301","Pier 31","4514 Pier 31 Rd",65020,(573) 873-5283,,"n","n","n","n","n","n"
"612","Pier 31","4514 Pier 31 Rd",65020,(573) 873-5283,,"n","n","n","n","n","n"
"203","Pioneer Restaurant","801 W Newton St",65084,(573) 378-5786,,"n","n","n","n","n","n"
"404","Pirates Cove Adventure Golf","5850 Highway 54",65065,(573) 348-4599,,"n","n","n","n","n","n"
"710","Pirate's Point","64 Water Ct",65079,(573) 374-1260,"http://www.piratespoint.com/","n","n","n","n","n","n"
"804","Pirate's Point","64 Water Ct",65079,(573) 374-1260,"http://www.piratespoint.com/","n","n","n","n","n","n"
"203","Pit Road","11678 Keepsake Rd",65037,(573) 372-5313,,"n","n","n","n","n","n"
"203","Pizza Hut","4643 Highway 54",65065,(573) 348-3112,"www.pizzahut.com","n","n","n","n","n","n"
"203","Pizza Hut","5255 Highway 54",65065,(573) 348-3016,"www.pizzahut.com","n","n","n","n","n","n"
"203","Pizza Hut","2400 Bagnell Dam Blvd",65049,(573) 365-3738,"www.pizzahut.com","n","n","n","n","n","n"
"203","Pizza Hut","1143 E US Highway 54",65020,(573) 346-2887,"www.pizzahut.com","n","n","n","n","n","n"
"203","Pizza Hut","601 N State Highway 5",65020,(573) 346-5459,"www.pizzahut.com","n","n","n","n","n","n"
"203","Pizza Hut","US-54 ",65026,(573) 392-3434,"www.pizzahut.com","n","n","n","n","n","n"
"203","Pizza Hut","600 N Main St",65037,(573) 374-6265,"www.pizzahut.com","n","n","n","n","n","n"
"203","Pizza Hut","1709 S Business 54",65026,(573) 392-1515,"www.pizzahut.com","n","n","n","n","n","n"
"203","Pizza Hut","1000 W Clay Rd",65084,(573) 378-5995,,"n","n","n","n","n","n"
"203","Pizza King","717 E Jefferson",65556,(573) 765-5454,,"n","n","n","n","n","n"
"203","Plain Jane's","7 Coffman Bend Dr, #Highway",65324,(573) 345-4256,,"n","n","n","n","n","n"
"202","Plaza III Steakhouse","20 Eagle Ridge Rd",65020,(573) 317-3560,"http://www.oldkinderhook.com/stay/plaza3.htm","n","n","n","n","n","n"
"110","Point Randall Resort","1584 Susan Rd",65049,(573) 365-2081,"http://pointrandallresort.com/","n","n","n","n","n","n"
"105","Point Randall Resort","1584 Susan Rd",65049,(573) 365-2081,"http://pointrandallresort.com/","n","n","n","n","n","n"
"110","Point View Resort","1220 Boot",65020,(573) 873-5340,,"n","n","n","n","n","n"
"612","Pointe Oasis Marina","442 Highly Dr",65079,(573) 374-1400,"http://pointeoasis.com/","n","n","n","n","n","n"
"710","Pointe Oasis Marina","442 Highly Dr",65079,(573) 374-1400,"http://pointeoasis.com/","n","n","n","n","n","n"
"710","Pope Boat Sales","50 Knox Rd",65072,(573) 365-1200,,"n","n","n","n","n","n"
"612","Port Arrowhead Osage Beach","4543 Highway 54",65065,(573) 348-1299,"http://marinemax.com/","n","n","n","n","n","n"
"110","Port Elsewhere Resort Club Ltd.","300 Elsewhere Dr",65049,(573) 365-4077,,"n","n","n","n","n","n"
"301","Portside Bar & Restaurant","3080 Bagnell Dam Rd",65049,(573) 365-2334,"http://www.theresortatportarrowhead.com/index.php","n","n","n","n","n","n"
"301","Portside Bar & Restaurant","3080 Bagnell Dam Rd",65049,(573) 365-2334,"http://www.theresortatportarrowhead.com/index.php","n","n","n","n","n","n"
"203","Potted Steer","5085 Highway 54",65065,(573) 348-5053,,"n","n","n","n","n","n"
"704","Preferred Auto Rental Inc","4051 Highway 54 #B",65065,(573) 348-2600,,"n","n","n","n","n","n"
"110","Prime Spot Resort","1233 Jeffries Rd",65065,(573) 302-1522,,"n","n","n","n","n","n"
"203","Pub","205 W McClurg Ave",65556,(573) 765-3141,,"n","n","n","n","n","n"
"605","Public Beach 1","403 Highway 134",65049,(573) 302-1044,,"n","n","n","n","n","n"
"110","Purvis Beach Resort","Lake Rd 5-29p",65079,(573) 374-5251,,"n","n","n","n","n","n"
"404","Putt 'N' Stuff Family Fun Center","5440 Highway 54",65065,(573) 348-2127,"http://www.funlake.com/minipage/puttnstuff/","n","n","n","n","n","n"
"402","Putt 'N' Stuff Family Fun Center","5440 Highway 54",65065,(573) 348-2127,"http://www.funlake.com/minipage/puttnstuff/","n","n","n","n","n","n"
"203","Quacker's","55 Quackers Cove Ct",65079,(573) 374-1011,,"n","n","n","n","n","n"
"105","Quail's Nest","4644 Highway 54",65065,(573) 348-2834,"http://quailsnest.com/","n","n","n","n","n","n"
"103","Quaint Cabin","328 Ashcliff Acres Drive",65079,(888) 762-9686,"www.quaintcabin.com/","n","n","n","n","n","n"
"203","Quiznos","3924 JR Prewitt Pkwy #C",65065,(573) 348-8908,,"n","n","n","n","n","n"
"203","Railroad Café","571 Elm St",65567,(417) 286-3040,,"n","n","n","n","n","n"
"110","Rainbow's End Resort","81 Lake Rd",65020,(573) 873-5106,,"n","n","n","n","n","n"
"110","Raintree Resort","19 Carls Drive",65049,(573) 365-2931,,"n","n","n","n","n","n"
"105","Randles Court","407 E 4th St",65026,(573) 392-5661,,"n","n","n","n","n","n"
"203","Randles Court","407 E 4th St",65026,(573) 392-5661,,"n","n","n","n","n","n"
"203","Randy's Frozen Custard","1 Kings Plz",65049,(573) 348-0711,,"n","n","n","n","n","n"
"710","Raymond's Boat & Motor Sales","27126 Highway 5",65037,(573) 372-5115,"http://www.raymondsboats.com/","n","n","n","n","n","n"
"612","Rebel Harbor Marina","34501 Rebel Rd",65078,(573) 372-6713,,"n","n","n","n","n","n"
"203","Red Barn BBQ & Grill","601 E Highway 54",65020,(573) 346-1000,,"n","n","n","n","n","n"
"203","Red Fox Store & Marina","1433 Red Fox Rd",65324,(573) 345-4596,,"n","n","n","n","n","n"
"612","Red Fox Store & Marina","1433 Red Fox Rd",65324,(573) 345-4596,,"n","n","n","n","n","n"
"710","Red Fox Store & Marina","1433 Red Fox Rd",65324,(573) 345-4596,,"n","n","n","n","n","n"
"105","Red Oak Inn","1828 Highway 52",65082,(573) 369-2100,,"n","n","n","n","n","n"
"107","Red Oak Resort & RV Park","Hwy 5 & Lake Rd 565",65020,(573) 873-9400,"www.redoakresort.com/","n","n","n","n","n","n"
"110","Red Oak Resort & RV Park","Hwy 5 & Lake Rd 565",65020,(573) 873-9400,"http://www.redoakresort.com/","n","n","n","n","n","n"
"105","Red Oak Resort & RV Park","Hwy 5 & Lake Rd 565",65020,(573) 873-9400,"http://www.redoakresort.com/","n","n","n","n","n","n"
"103","Red Oak Resort & RV Park","Hwy 5 & Lake Rd 565",65020,(573) 873-9400,"http://www.redoakresort.com/","n","n","n","n","n","n"
"607","Redfield Golf Course","14005 Redfield Dr",65032,(573) 498-0110,"http://redfieldgolf.com/sites/courses/layout9.asp?id=586&page=30896","n","n","n","n","n","n"
"203","Relaxation INC","5024 Highway 54",65065,(573) 348-1733,,"n","n","n","n","n","n"
"110","Resort At Port Arrowhead","3080 Bagnell Dam Rd",65049,(573) 365-2334,"http://www.theresortatportarrowhead.com/index.php","n","n","n","n","n","n"
"105","Resort At Port Arrowhead","3080 Bagnell Dam Rd",65049,(573) 365-2334,"http://www.theresortatportarrowhead.com/index.php","n","n","n","n","n","n"
"407","Resort At Port Arrowhead","3080 Bagnell Dam Rd",65049,(573) 365-2334,"http://www.theresortatportarrowhead.com/index.php","n","n","n","n","n","n"
"612","Resort At Port Arrowhead","3080 Bagnell Dam Rd",65049,(573) 365-2334,"http://www.theresortatportarrowhead.com/index.php","n","n","n","n","n","n"
"202","Resort At Port Arrowhead","3080 Bagnell Dam Rd",65049,(573) 365-2334,"http://www.theresortatportarrowhead.com/index.php","n","n","n","n","n","n"
"203","Resort At Port Arrowhead","3080 Bagnell Dam Rd",65049,(573) 365-2334,"http://www.theresortatportarrowhead.com/index.php","n","n","n","n","n","n"
"301","Resort At Port Arrowhead","3080 Bagnell Dam Rd",65049,(573) 365-2334,"http://www.theresortatportarrowhead.com/index.php","n","n","n","n","n","n"
"404","Resort At Port Arrowhead","3080 Bagnell Dam Rd",65049,(573) 365-2334,"http://www.theresortatportarrowhead.com/index.php","n","n","n","n","n","n"
"301","Richard Knoggins","Lake Rd 514",65037,(573) 372-3915,,"n","n","n","n","n","n"
"203","Richard Knoggins","Lake Rd 514",65037,(573) 372-3915,,"n","n","n","n","n","n"
"607","Richland Golf & CC ","1555 N Pine St",65556,(573) 765-4825,,"n","n","n","n","n","n"
"110","Rippling Waters Resort","23 Rippling Waters Dr",65020,(573) 346-2642,"http://ripplingwatersresort.com/","n","n","n","n","n","n"
"103","Rippling Waters Resort","23 Rippling Waters Dr",65020,(573) 346-2642,"http://ripplingwatersresort.com/","n","n","n","n","n","n"
"301","Risky's Sports Bars","410 W Highway 54",65020,(573) 346-9740,"http://www.lakeoftheozarksbars.com/Risky'sCam.htm","n","n","n","n","n","n"
"203","Risky's Tavern & Eats","301 Monarch Cv",65049,(573) 365-7223,"http://www.lakeoftheozarksbars.com/Risky'sCam.htm","n","n","n","n","n","n"
"301","Risky's Tavern & Eats","301 Monarch Cv",65049,(573) 365-7223,"http://www.lakeoftheozarksbars.com/Risky'sCam.htm","n","n","n","n","n","n"
"107","Riverview RV Park & Sales","398 Wood River Rd",65049,(573) 365-5118,,"n","n","n","n","n","n"
"110","Robins Resort","4935 Robins Cir",65065,(573) 348-2275,"http://robinsresort.net/","n","n","n","n","n","n"
"203","Rock Bottom Bar & Grill","1104 Bagnell Dam Blvd",65049,(573) 964-6370,,"n","n","n","n","n","n"
"301","Rock Bottom Bar & Grill","1104 Bagnell Dam Blvd",65049,(573) 964-6370,,"n","n","n","n","n","n"
"110","Rock Harbor Resort & Motel","973 Rock Harbor Rd",65079,(573) 374-5586,"http://rockharborresort.com/","n","n","n","n","n","n"
"105","Rock Harbor Resort & Motel","973 Rock Harbor Rd",65079,(573) 374-5586,"http://rockharborresort.com/","n","n","n","n","n","n"
"203","Rock Island","1273 Bagnell Dam Blvd",65049,(573) 365-8911,,"n","n","n","n","n","n"
"110","Rockwood Resort Motel","1701 Bagnell Dam Blvd",65049,(573) 365-2460,,"n","n","n","n","n","n"
"105","Rockwood Resort Motel","1701 Bagnell Dam Blvd",65049,(573) 365-2460,,"n","n","n","n","n","n"
"203","Rocky Mount Roadhouse","27560 Hwy W",65072,(573) 392-5363,,"n","n","n","n","n","n"
"203","Rocky Top Bar & Grill","16384 Hwy O ",65037,(573) 372-3399,,"n","n","n","n","n","n"
"301","Rocky Top Bar & Grill","16384 Hwy O ",65037,(573) 372-3399,,"n","n","n","n","n","n"
"110","Rod & Reel Resort","48 Rod N Reel Dr",65020,(573) 873-5161,,"n","n","n","n","n","n"
"105","Rodeway Inn","6412 Highway 54",65065,(573) 348-2967,,"n","n","n","n","n","n"
"607","Rolling Hills Country Club","13966 Country Club Rd",65084,(573) 378-2881,,"n","n","n","n","n","n"
"607","Roses-Run Golf Club","34885 Highway Vv",65463,(417) 426-5979,,"n","n","n","n","n","n"
"103","Runaway II ","81 Runaway Dr",65324,(573) 345-4590,"http://runaway2resort.com/","n","n","n","n","n","n"
"107","Runaway II ","81 Runaway Dr",65324,(573) 345-4590,"http://runaway2resort.com/","n","n","n","n","n","n"
"110","Runaway II ","81 Runaway Dr",65324,(573) 345-4590,"http://runaway2resort.com/","n","n","n","n","n","n"
"203","Runaway II ","81 Runaway Dr",65324,(573) 345-4590,"http://runaway2resort.com/","n","n","n","n","n","n"
"710","Runaway II ","81 Runaway Dr",65324,(573) 345-4590,"http://runaway2resort.com/","n","n","n","n","n","n"
"612","Runaway II ","81 Runaway Dr",65324,(573) 345-4590,"http://runaway2resort.com/","n","n","n","n","n","n"
"203","Rustic Restaurant","26648 Highway 5",65037,(573) 372-0600,,"n","n","n","n","n","n"
"203","Ruthie D's ","4466 Horseshoe Bend Pkwy",65049,(573) 964-6448,"www.ruthieds.net","n","n","n","n","n","n"
"110","Ryan's Resort","13 Hidden Valley Rd",65026,(573) 365-3436,,"n","n","n","n","n","n"
"612","Salty Dog Marina","1680 Autumn Ln",65065,(573) 302-1004,,"n","n","n","n","n","n"
"203","Sbarro","State Route Kk",65065,(573) 348-3131,"http://sbarro.com/","n","n","n","n","n","n"
"107","Scenic 63 Motel & RV Park LLC","12141 Highway 63 South",65582,(573) 422-3907,"www.scenic63.com","n","n","n","n","n","n"
"105","Scenic 63 Motel & RV Park LLC","12141 Highway 63 South",65582,(573) 422-3907,"www.scenic63.com","n","n","n","n","n","n"
"105","Schlicht Mill Lodge","17715 Resort Rd",65452,(573) 736-5342,,"n","n","n","n","n","n"
"301","Schmidty's Tiki","39 Knox Rd",65072,(573) 964-0510,,"n","n","n","n","n","n"
"105","Scottish Inn","5404 Highway 54",65065,(573) 348-3123,,"n","n","n","n","n","n"
"203","Scotty's Drive-In","14317 N State Highway 5",65079,(573) 374-5529,,"n","n","n","n","n","n"
"801","Sea Rocket Rides","1100 Bagnell Dam Blvd",65049,(573) 286-4306,"http://www.pelicancharter.com/","n","n","n","n","n","n"
"203","Season's Café & Bakery","248 S Main St",65037,(573) 374-4452,,"n","n","n","n","n","n"
"607","Season's Ridge Golf Club","315 Four Seasons Dr",65049,(573) 365-8544,"http://4seasonsresort.com/","n","n","n","n","n","n"
"203","Senor Peppers","20 Camdenton Ct SE",65020,(573) 346-5433,,"n","n","n","n","n","n"
"302","Seven Springs Winery","846 Winery Hills Ests",65065,(573) 317-0100,"http://www.sevenspringswinery.com/","n","n","n","n","n","n"
"203","Shady Gators","132 Sweet William Rd",65049,(573) 365-6464,"http://www.shadygators.com","n","n","n","n","n","n"
"301","Shady Gators","132 Sweet William Rd",65049,(573) 365-6464,"http://www.shadygators.com","n","n","n","n","n","n"
"110","Shady Oaks Resort","Lake Rd W-15",65049,(573) 365-9678,"www.theshadyoaksresort.com","n","n","n","n","n","n"
"710","Shady Oaks Resort","Lake Rd W-15",65049,(573) 365-9678,"www.theshadyoaksresort.com","n","n","n","n","n","n"
"110","Shangri-La Resort","606 Shangrila Dr",65079,(573) 374-5421,"http://www.shangrilares.com/","n","n","n","n","n","n"
"301","Sharky's Timeout Sports Bar & Grill","27533 Shorty Rd",65011,(573) 372-6723,"http://www.sharkystimeout.com/","n","n","n","n","n","n"
"612","Sharky's Timeout Sports Bar & Grill","27533 Shorty Rd",65011,(573) 372-6723,"http://www.sharkystimeout.com/","n","n","n","n","n","n"
"203","Sharky's Timeout Sports Bar & Grill","27533 Shorty Rd",65011,(573) 372-6723,"http://www.sharkystimeout.com/","n","n","n","n","n","n"
"612","Shawnee Bend Landing","35 Shawnee Ct",65079,(573) 374-9888,,"n","n","n","n","n","n"
"615","Shawnee Bend Public Access - Sunrise Beach","783 Thunder Mountain Rd",65079,(573) 346-2210,,"n","n","n","n","n","n"
"105","Shawnee Bluff Inn LLC","2430 Bagnell Dam Blvd",65049,(573) 365-6174,,"n","n","n","n","n","n"
"612","Ship's Marina","154 Highway 5",65037,(573) 372-6278,,"n","n","n","n","n","n"
"203","Shirley's Diner","105 S Monroe St",65084,(573) 378-6000,,"n","n","n","n","n","n"
"203","Shoney's","4717 Highway 54",65065,(573) 348-5753,"http://shoneys.com/","n","n","n","n","n","n"
"301","Shooter's 21","1522 Nichols Rd",65065,(573) 348-2100,,"n","n","n","n","n","n"
"105","Shoreland Motel","1172 Bagnell Dam Blvd",65049,(573) 964-6969,,"n","n","n","n","n","n"
"107","Shorewood Land RV & Campground","75 Unicorn Rd",65026,(573) 356-1974,,"n","n","n","n","n","n"
"710","Shorewood Land RV & Campground","75 Unicorn Rd",65026,(573) 356-1974,,"n","n","n","n","n","n"
"105","Shorewood Land RV & Campground","75 Unicorn Rd",65026,(573) 356-1974,,"n","n","n","n","n","n"
"203","Shorty Pants Lounge","1680 Autumn Ln",65065,(573) 302-1745,"http://www.lakeoftheozarksbars.com/pklpete.htm","n","n","n","n","n","n"
"301","Shorty Pants Lounge","1680 Autumn Ln",65065,(573) 302-1745,"http://www.lakeoftheozarksbars.com/pklpete.htm","n","n","n","n","n","n"
"203","Shrimp Daddy's","16218 N State Highway 5",65079,(573) 374-7800,,"n","n","n","n","n","n"
"301","Silver Dollar","20 Acorn Rd",65026,(573) 392-3677,,"n","n","n","n","n","n"
"612","Silver Saddie Restaurant","404 E 4th St",65026,(573) 392-2312,,"n","n","n","n","n","n"
"110","Silver Sands Resort & Marina","271 Silver Sands Dr",65079,(573) 374-6820,,"n","n","n","n","n","n"
"612","Silver Sands Svc Ctr","217 Silver Sands Dr",65079,(573) 374-6126,,"n","n","n","n","n","n"
"301","Skeeters","120 W Newton St",65084,(573) 378-7441,,"n","n","n","n","n","n"
"608","Skiers Wharf Extreme","5755 Highway 54",65065,(573) 302-0575,,"n","n","n","n","n","n"
"105","Skyline Motel","3605 Highway 54",65065,(573) 302-0905,,"n","n","n","n","n","n"
"110","Skyline Resort & Boat Rental","148 Skyline Dr",65020,(573) 873-5008,,"n","n","n","n","n","n"
"710","Skyline Resort & Boat Rental","148 Skyline Dr",65020,(573) 873-5008,,"n","n","n","n","n","n"
"105","Sleep Inn & Suites","624 E Highway 54",65020,(573) 346-4501,"http://www.showhotel.com/sleepinn/6502001/","n","n","n","n","n","n"
"612","Sleepy Bill's Marina & Resort","33715 Ivy Bend Rd",65078,(573) 372-5752,"http://sleepybills.com/","n","n","n","n","n","n"
"110","Sleepy Bill's Marina & Resort","33715 Ivy Bend Rd",65078,(573) 372-5752,"http://sleepybills.com/","n","n","n","n","n","n"
"203","Small Wood House","5831 Hwy 54",65065,(573) 348-0300,"http://www.smallwoodhouse.com/","n","n","n","n","n","n"
"612","Smoked on the Water","29475 Mill Creek Marina Rd",65037,(573) 372-1700,,"n","n","n","n","n","n"
"203","Smoked on the Water","29475 Mill Creek Marina Rd",65037,(573) 372-1700,,"n","n","n","n","n","n"
"301","Smoked on the Water","29475 Mill Creek Marina Rd",65037,(573) 372-1700,,"n","n","n","n","n","n"
"203","Snafu","33410 Ivy Bend Rd",65078,(573) 372-5339,,"n","n","n","n","n","n"
"301","Snafu","33410 Ivy Bend Rd",65078,(573) 372-5339,,"n","n","n","n","n","n"
"203","Someplace Else","245 S Main St",65037,(573) 374-4058,,"n","n","n","n","n","n"
"203","Sonic Drive-In","501 E US Highway 54",65020,(573) 346-7478,,"n","n","n","n","n","n"
"203","Sonic Drive-In","155 S Main St",65037,(573) 374-7742,,"n","n","n","n","n","n"
"203","Sonic Drive-In","304 S State Highway 5",65084,(573) 378-2225,,"n","n","n","n","n","n"
"203","Sonic Drive-In","1712 S Business Highway 54",65026,(573) 392-7323,,"n","n","n","n","n","n"
"110","Southwood Shores Resort Condos","150 Sws Dr",65049,(573) 365-4644,"www.southwoodshorescondos.com/intro.htm","n","n","n","n","n","n"
"103","Southwood Shores Resort Condos","150 Sws Dr",65049,(573) 365-4644,"http://www.southwoodshorescondos.com/intro.htm","n","n","n","n","n","n"
"103","Sportsman's Harbor Condiminium","449 Sportsman Dr",65020,(573) 873-5126,,"n","n","n","n","n","n"
"110","Sportsman's Harbor Condiminium","449 Sportsman Dr",65020,(573) 873-5126,,"n","n","n","n","n","n"
"107","Standing Rock Campground","21 Dutchman Ln",65020,(573) 374-5252,,"n","n","n","n","n","n"
"105","Star Motel","1384 Bagnell Dam Blvd",65049,(573) 365-8993,,"n","n","n","n","n","n"
"203","Steak 'n Shake","3920 Highway 54",65065,(573) 348-0070,,"n","n","n","n","n","n"
"203","Steve's Family Style Restaurant","2079 State Road Y",65052,(573) 346-0099,,"n","n","n","n","n","n"
"203","Stewarts LLC","1151 Bagnell Dam Blvd",65049,(573) 365-2400,,"n","n","n","n","n","n"
"612","Stingray Marina","683 Stingray Dr",65079,(573) 374-8388,,"n","n","n","n","n","n"
"710","Stingray Marina","683 Stingray Dr",65079,(573) 374-8388,,"n","n","n","n","n","n"
"301","Stockton's Pub & Grill","4540 Highway 54 Suite F1",65065,(573) 348-1500,"http://www.stocktonspubandgrill.com/","n","n","n","n","n","n"
"203","Stockton's Pub & Grill","4540 Highway 54 Suite F1",65065,(573) 348-1500,"http://www.stocktonspubandgrill.com/","n","n","n","n","n","n"
"501","Stone Crest Mall","4540 Highway 54",65065,(573) 348-3106,"www.shopstonecrestmall.com","n","n","n","n","n","n"
"203","Storage Shed","11225 N State Highway 7",65324,(573) 347-2535,,"n","n","n","n","n","n"
"203","Stumpy's","33880 Ivy Bend Rd",65078,(573) 372-9903,,"n","n","n","n","n","n"
"203","Subs & Salads","4294 Highway 54",65065,(573) 302-7773,,"n","n","n","n","n","n"
"203","Subway","3978 Highway 54",65065,(573) 348-0123,"www.subway.com","n","n","n","n","n","n"
"203","Subway","5896 Highway 54",65065,(573) 302-7827,"www.subway.com","n","n","n","n","n","n"
"203","Subway","187 E US Highway 54",65020,(573) 346-1677,"www.subway.com","n","n","n","n","n","n"
"203","Subway","94 Cecil St",65020,(573) 346-1200,"www.subway.com","n","n","n","n","n","n"
"203","Subway","102 W 4th St",65026,(573) 392-7827,"www.subway.com","n","n","n","n","n","n"
"203","Subway","14318 Mount Carmel Rd",65032,(573) 498-9942,"www.subway.com","n","n","n","n","n","n"
"404","Subway","809 W Newton St",65084,(573) 378-5640,"www.subway.com","n","n","n","n","n","n"
"404","Sugar Creek Minature Golf Inc","3001 Bagnell Dam Blvd",65049,(573) 365-2226,,"n","n","n","n","n","n"
"103","Summerset Inn Resort & Villas","1165 Jeffries Rd",65065,(573) 348-5073,,"n","n","n","n","n","n"
"110","Summerset Inn Resort & Villas","1165 Jeffries Rd",65065,(573) 348-5073,,"n","n","n","n","n","n"
"203","Sunrise Cantina","264 Sunset Hills Dr",65079,(573) 374-8185,,"n","n","n","n","n","n"
"612","Sunset Beach Resort","4430 Sunset Dr",65065,(573) 348-5118,,"n","n","n","n","n","n"
"710","Sunset Beach Resort Marina","4430 Sunset Dr",65065,(573) 348-5118,,"n","n","n","n","n","n"
"110","Sunset Beach Resort Marina","4430 Sunset Dr",65065,(573) 348-5118,,"n","n","n","n","n","n"
"105","Sunset Beach Resort Marina","4430 Sunset Dr",65065,(573) 348-5118,,"n","n","n","n","n","n"
"110","Sunset Inn Resort","598 Zack Wheat Dr",65079,(573) 374-5751,"http://sunsetinnresort.com/","n","n","n","n","n","n"
"110","Sunshine Pointe Resort","1295 Case Rd",65065,(573) 348-2278,,"n","n","n","n","n","n"
"105","Super 8 - Lake of the Ozarks","5927 Highway 54",65065,(573) 348-4835,,"n","n","n","n","n","n"
"612","Surdyke Yamaha","1660 Yamaha Dr",65065,(888) 575-9283,"http://www.surdykeyamaha.com/","n","n","n","n","n","n"
"710","Surdyke Yamaha","1660 Yamaha Dr",65065,(888) 575-9283,"http://www.surdykeyamaha.com/","n","n","n","n","n","n"
"607","Sycamore Creek Golf Club","1270 Nichols Rd",65065,(573) 348-9593,"http://sycamorecreekgolfclub.com/sycamoreIndex.asp","n","n","n","n","n","n"
"203","Taco Bell","3354 Highway 54",65065,(573) 365-4380,"www.tacobell.com","n","n","n","n","n","n"
"203","Taco Bell","423 E US Highway 54",65020,(573) 346-7824,"www.tacobell.com","n","n","n","n","n","n"
"203","Taco Bell","253 E US Highway 54",65020,(573) 346-6982,,"n","n","n","n","n","n"
"203","Taco Bell","1501 S Business Highway 54",65026,(573) 392-3555,,"n","n","n","n","n","n"
"612","Tan-Tar-A Resorts","State Route Kk",65065,(573) 348-3131,"http://tan-tar-a.com/","n","n","n","n","n","n"
"710","Tan-Tar-A Resorts","State Route Kk",65065,(573) 348-3131,"http://tan-tar-a.com/","n","n","n","n","n","n"
"110","Tan-Tar-A Resorts","State Route Kk",65065,(573) 348-3131,"http://tan-tar-a.com/","n","n","n","n","n","n"
"103","Tan-Tar-A Resorts","State Route Kk",65065,(573) 348-3131,"http://tan-tar-a.com/","n","n","n","n","n","n"
"103","The Club at Old Kinderhook","80 Cr 54-79",65020,(573) 317-3570,"http://www.oldkinderhook.com/","n","n","n","n","n","n"
"203","The Duck","67 Cherokee Ct",65049,(573) 365-9973,"http://www.theduckrestaurant.com/","n","n","n","n","n","n"
"203","The Hook Café at Old Kinderhook","80 Cr 54-79",65020,(573) 317-3575,"http://www.oldkinderhook.com/stay/plaza3.htm","n","n","n","n","n","n"
"110","The Resort at the Lake of the Ozarks","4900 World Mark Dr",65065,(573) 302-7500,"www.greatpricedcondos.com/lo/","n","n","n","n","n","n"
"105","The Resort at the Lake of the Ozarks","4900 World Mark Dr",65065,(573) 302-7500,"http://www.greatpricedcondos.com/lo/","n","n","n","n","n","n"
"203","Three Pigs BBQ & Grill","29475 Mill Creek Marina Rd",65037,(573) 372-3956,"http://www.lakeoftheozarksbars.com/3PigsBBQ.htm","n","n","n","n","n","n"
"301","Three Pigs BBQ & Grill","26657 Highway 5",65037,(573) 372-1800,"http://www.lakeoftheozarksbars.com/3PigsBBQ.htm","n","n","n","n","n","n"
"110","Three Seasons Resort","5499 Three Seasons Rd, Stop 1",65065,(573) 348-2474,,"n","n","n","n","n","n"
"904","Tiger Lanes","701 W Clay Rd",65084,(573) 378-5779,,"n","n","n","n","n","n"
"405","Timber Falls Indoor Waterpark","State Route Kk",65065,(573) 348-3131,,"n","n","n","n","n","n"
"301","Tirebiters","4704 Jayhawk St",65065,(573) 348-1177,,"n","n","n","n","n","n"
"801","Tom Sawyer Cruises","1006 Bagnell Dam Blvd",65049,(573) 365-3300,"http://www.lakeareachamber.com/pages/tom-huck/tom-huck.htm","n","n","n","n","n","n"
"105","Tomahawk Motel","2865 Bagnell Dam Blvd",65049,(573) 365-5331,,"n","n","n","n","n","n"
"203","Tonka Hills Restaurant","2598 US 54-65-E",65052,(573) 346-5759,,"n","n","n","n","n","n"
"203","Tony G's","14160 Twin Bays Rd",65037,(573) 372-3600,,"n","n","n","n","n","n"
"301","Too Risky","302 Monarch Cv",65049,(573) 365-7224,,"n","n","n","n","n","n"
"611","Top Gun Parasail","3620 Highway 54",65065,(573) 365-6675,,"n","n","n","n","n","n"
"203","Topsider Lounge","4877 Highway 54",65065,(573) 348-9801,"http://topsiderlakeoftheozarks.com/new/","n","n","n","n","n","n"
"301","Topsider Lounge","4877 Highway 54",65065,(573) 348-9801,"http://topsiderlakeoftheozarks.com/new/","n","n","n","n","n","n"
"710","Topsider's Boat Rental","4877 Highway 54",65065,(573) 302-1955,,"n","n","n","n","n","n"
"203","Tortilla Flat","12164 N State Highway 5",65079,(573) 374-1307,,"n","n","n","n","n","n"
"203","Touch of Asia Sushi & Sake Bar","3715 Highway 54 Suite 1 Dunmar Plaza",65065,(573) 302-7733,"http://www.lakeoftheozarksbars.com/TouchAsia.htm","n","n","n","n","n","n"
"105","Town & Country Motel","5154 Highway 54",65065,(573) 348-5677,"http://www.townandcountrymotel.com/","n","n","n","n","n","n"
"301","Traffic Jam","27632 Highway Y",65072,(573) 392-8501,,"n","n","n","n","n","n"
"203","Trail House Restaurant","6125 Old Route 5",65020,(573) 873-3433,,"n","n","n","n","n","n"
"203","Tres Hombres","8779 N State Highway 5 #7",65020,(573) 873-5822,,"n","n","n","n","n","n"
"801","Tropical Island Cruises","PO Box 734",65065,(573) 348-0083,"http://www.tropicislandcruises.com/","n","n","n","n","n","n"
"203 ","Tupelo Honey's Bakery & Café","8779 N State Highway 5",65020,(573) 873-9955,,"n","n","n","n","n","n"
"203","T'z Pizzaria","4460 Horseshoe Bend Pkwy",65049,(573) 964-5004,,"n","n","n","n","n","n"
"203","Uncle Sam's Ice Cream Deli","28490 Highway Y",65072,(573) 392-1061,,"n","n","n","n","n","n"
"107","US Fort Leonardwood Rec Area","789 Olney Cir",65052,(573) 346-5640,,"n","n","n","n","n","n"
"110","Val-E-Vue Resort","1629 Resorts Rd",65020,(573) 873-5068,,"n","n","n","n","n","n"
"203","Vallartas","3247 Bagnell Dam",65049,(573) 365-2900,,"n","n","n","n","n","n"
"203","Versailes Drive In","612 W Newton St",65026,(573) 392-3677,,"n","n","n","n","n","n"
"612","Village Marina & Yacht Club","4039 Highway 54",65065,(573) 348-4488,"http://www.villagemarina.com/","n","n","n","n","n","n"
"612","Village Marina & Yacht Club","107 Village Marina Rd",65026,(573) 365-1800,"http://www.villagemarina.com/","n","n","n","n","n","n"
"612","Village Marina Inc","4287 Highway 54",65065,(573) 348-3433,"http://www.villagemarina.com/","n","n","n","n","n","n"
"612","Villages Harbor Marina","538 Villages Harbour Dr",65079,(573) 374-6199,,"n","n","n","n","n","n"
"203","Vinny's Café & Lounge","751 N Main St",65037,(573) 374-9982,,"n","n","n","n","n","n"
"301","Vinny's Café & Lounge","751 N Main St",65037,(573) 374-9982,,"n","n","n","n","n","n"
"203","Vista Grande Mexican Restaurant","4579 Highway 54",65065,(573) 348-1231,,"n","n","n","n","n","n"
"301","Vista Grande Mexican Restaurant","4579 Highway 54",65065,(573) 348-1231,,"n","n","n","n","n","n"
"203","Wagon Wheel Saloon Restaurant","25 Doyle Rd",65026,(573) 392-8883,,"n","n","n","n","n","n"
"612","Walt's Boat Repair","1213 Highway O",65037,(573) 374-5829,,"n","n","n","n","n","n"
"105","Wander Inn","282 No Return Rd",65079,(573) 374-3115,,"n","n","n","n","n","n"
"301","Watering Hole","13968 N State Highway 5",65079,(573) 374-5019,,"n","n","n","n","n","n"
"105","Waters Edge Motel","149 Highway 5 ",65037,(573) 372-2201,,"n","n","n","n","n","n"
"110","Water's Edge Motel & Resort","151 Highway 5",65037,(573) 372-2201,"http://www.watersedgemotel.net/","n","n","n","n","n","n"
"203","Wee Chef Restaurant","1113 N State Highway 5",65020,(573) 346-2625,,"n","n","n","n","n","n"
"203","Weenie World Inc","1339 Bagnell Dam Blvd",65049,(573) 365-2601,,"n","n","n","n","n","n"
"203","Wendy's","3562 Highway 54",65065,(573) 365-4318,,"n","n","n","n","n","n"
"105","Western Hills Motel","201 N State Highway 5",65084,(573) 378-4663,,"n","n","n","n","n","n"
"612","Westport Yacht Club & Marina","16319 P Road",65037,(573) 372-6112,"www.westportyachtclub.com","n","n","n","n","n","n"
"904","Westside Lanes","107 Highway O",65037,(573) 374-6212,,"n","n","n","n","n","n"
"710","WFO Watercraft Rentals","5142 Highway 54",65065,(573) 302-0744,"www.wfoinc.com","n","n","n","n","n","n"
"612","WFO Watercraft Rentals","5142 Highway 54",65065,(573) 302-0744,"www.wfoinc.com","n","n","n","n","n","n"
"612","Wheelhouse Marina","143 Wheelhouse Ct",65049,(573) 365-6077,,"n","n","n","n","n","n"
"301","Whiskers","944 W Hwy 54",65065,(573) 346-6100,,"n","n","n","n","n","n"
"612","Wilbus Marine Svc","77 Grey House Rd",65079,(573) 374-7095,,"n","n","n","n","n","n"
"105","Williamsburg Inn","5969 Highway 54",65065,(573) 348-2267,,"n","n","n","n","n","n"
"110","Willy's Place","4 Ironwood Ln",65486,(573) 369-2968,,"n","n","n","n","n","n"
"301","Willy's Place","4 Ironwood Ln",65486,(573) 369-2968,,"n","n","n","n","n","n"
"110","Wilson's Resort","88 Wilson Resort Rd",65020,(573) 873-5178,"www.wilsonsresort.com","n","n","n","n","n","n"
"110","Windermere Baptist Conference Center","205 Volunteer Lane",65787,(573) 346-5200,"http://www.windermereusa.org/home.asp","n","n","n","n","n","n"
"301","Windrose On the Water","State Route Kk",65065,(573) 348-3131,,"n","n","n","n","n","n"
"203","Wobbly Boots BBQ","5203 Highway 54",65065,(573) 348-2277,"www.wobblybootsbbq.com","n","n","n","n","n","n"
"301","Wobbly Boots BBQ","5203 Highway 54",65065,(573) 348-2277,"www.wobblybootsbbq.com","n","n","n","n","n","n"
"203","Wok N Roll","1359 Bagnell Dam Blvd",65049,(573) 365-2090,,"n","n","n","n","n","n"
"301","Woody's","5834 Highway 54",65065,(573) 348-0545,,"n","n","n","n","n","n"
"110","World Mark by Wyndham","4900 Worldmark Ln",65065,(573) 302-7500,,"n","n","n","n","n","n"
"105","Wrenwood Robinwood Condo","163 Wrenwood Cir",65049,(573) 365-2843,,"n","n","n","n","n","n"
"704","X-Press Rent A Car","1087 Armory Dr",65065,(573) 348-0255,,"n","n","n","n","n","n"
"612","Yacht Club at Toad Cove","2359 Bittersweet Rd",65049,(573) 964-5779,,"n","n","n","n","n","n"
"710","Yacht Club at Toad Cove","2359 Bittersweet Rd",65049,(573) 964-5779,,"n","n","n","n","n","n"
"203","Yankee Peddlers Country Tea Room & Restaurant","5831 Hwy 54",65065,(573) 348-5045,"http://www.yankeepeddlerstearoom.com/","n","n","n","n","n","n"
"901","Zodiac Lanes","907 Ball Park Rd",65020,(573) 346-4900,,"n","n","n","n","n","n"
"107","Zwanzig Campground","25471 Highway 5 Lot 15",65037,(573) 372-1272,,"n","n","n","n","n","n"
